{
"type": "FeatureCollection",
"name": "land",
"crs": { "type": "name", "properties": { "name": "urn:ogc:def:crs:OGC:1.3:CRS84" } },
"xy_coordinate_resolution": 1e-05,
"features": [
{ "type": "Feature", "properties": { "kind": "land" }, "geometry": { "type": "MultiPolygon", "coordinates": [ [ [ [ 10.40301, 36.72671 ], [ 10.41676, 36.72956 ], [ 10.437, 36.72884 ], [ 10.48773, 36.74965 ], [ 10.51871, 36.7558 ], [ 10.53823, 36.77203 ], [ 10.5526, 36.82292 ], [ 10.56691, 36.86323 ], [ 10.58497, 36.87617 ], [ 10.60613, 36.87971 ], [ 10.6526, 36.8769 ], [ 10.69467, 36.88345 ], [ 10.73347, 36.89581 ], [ 10.78321, 36.92442 ], [ 10.81398, 36.95038 ], [ 10.82309, 36.95392 ], [ 10.83009, 36.96825 ], [ 10.88754, 37.00601 ], [ 10.89584, 37.01411 ], [ 10.89845, 37.02521 ], [ 10.89291, 37.03864 ], [ 10.90211, 37.04881 ], [ 10.92368, 37.05703 ], [ 10.97413, 37.06127 ], [ 11.01271, 37.08478 ], [ 11.03338, 37.08747 ], [ 11.05104, 37.08031 ], [ 11.06031, 37.06249 ], [ 11.05893, 37.0539 ], [ 11.04859, 37.04198 ], [ 11.04607, 37.03144 ], [ 11.04835, 37.02033 ], [ 11.05812, 37.00601 ], [ 11.06031, 36.99702 ], [ 11.06398, 36.99006 ], [ 11.08131, 36.96939 ], [ 11.08774, 36.95942 ], [ 11.0901, 36.94961 ], [ 11.09181, 36.92821 ], [ 11.09449, 36.91844 ], [ 11.10597, 36.9016 ], [ 11.12428, 36.88569 ], [ 11.13623, 36.87053 ], [ 11.13055, 36.85404 ], [ 11.11677, 36.83841 ], [ 11.07674, 36.82519 ], [ 11.02214, 36.78828 ], [ 10.99255, 36.74406 ], [ 10.94993, 36.69388 ], [ 10.87952, 36.58847 ], [ 10.82566, 36.47981 ], [ 10.79993, 36.45189 ], [ 10.71715, 36.43455 ], [ 10.68868, 36.42152 ], [ 10.38815, 36.42152 ], [ 10.38815, 36.72811 ], [ 10.40301, 36.72671 ] ] ], [ [ [ 16.59392, 41.20698 ], [ 16.83058, 41.14631 ], [ 16.85141, 41.13296 ], [ 16.85816, 41.13296 ], [ 16.85816, 41.14037 ], [ 16.86443, 41.14037 ], [ 16.88526, 41.12397 ], [ 17.05714, 41.08185 ], [ 17.20314, 41.02098 ], [ 17.27638, 40.98021 ], [ 17.31007, 40.95478 ], [ 17.34791, 40.9121 ], [ 17.36118, 40.9064 ], [ 17.3777, 40.90229 ], [ 17.41358, 40.88109 ], [ 17.47608, 40.83015 ], [ 17.49195, 40.82445 ], [ 17.51222, 40.8203 ], [ 17.54835, 40.80195 ], [ 17.63453, 40.78498 ], [ 17.64527, 40.77977 ], [ 17.74838, 40.74763 ], [ 17.84392, 40.69416 ], [ 17.92189, 40.68301 ], [ 17.95582, 40.67048 ], [ 17.95493, 40.64692 ], [ 17.96632, 40.6468 ], [ 17.99195, 40.65314 ], [ 18.00701, 40.6507 ], [ 18.01108, 40.64419 ], [ 18.01149, 40.63524 ], [ 18.0158, 40.62519 ], [ 18.03924, 40.60822 ], [ 18.04322, 40.602 ], [ 18.03745, 40.55695 ], [ 18.11997, 40.50458 ], [ 18.21168, 40.46475 ], [ 18.23146, 40.46137 ], [ 18.23829, 40.45767 ], [ 18.2588, 40.43065 ], [ 18.27019, 40.42121 ], [ 18.30323, 40.39989 ], [ 18.32911, 40.36669 ], [ 18.34376, 40.35163 ], [ 18.3615, 40.34528 ], [ 18.37045, 40.33869 ], [ 18.43727, 40.26789 ], [ 18.50001, 40.15249 ], [ 18.50945, 40.14183 ], [ 18.51612, 40.13923 ], [ 18.51108, 40.12759 ], [ 18.51743, 40.11416 ], [ 18.51612, 40.10448 ], [ 18.50807, 40.09455 ], [ 18.49187, 40.08466 ], [ 18.48357, 40.05516 ], [ 18.47039, 40.04344 ], [ 18.43409, 40.02253 ], [ 18.41139, 39.97883 ], [ 18.40789, 39.96849 ], [ 18.40406, 39.9475 ], [ 18.39479, 39.9256 ], [ 18.39259, 39.91608 ], [ 18.39967, 39.89033 ], [ 18.40008, 39.87857 ], [ 18.38649, 39.82534 ], [ 18.38917, 39.81708 ], [ 18.38396, 39.81391 ], [ 18.37371, 39.79979 ], [ 18.36834, 39.79662 ], [ 18.34653, 39.79804 ], [ 18.33041, 39.80341 ], [ 18.28207, 39.8332 ], [ 18.26564, 39.83759 ], [ 18.22438, 39.83759 ], [ 18.21127, 39.83934 ], [ 18.18653, 39.85187 ], [ 18.16188, 39.86054 ], [ 18.13063, 39.88349 ], [ 18.09425, 39.90274 ], [ 18.0809, 39.90644 ], [ 18.07154, 39.91153 ], [ 18.00733, 39.98607 ], [ 17.99537, 39.99527 ], [ 17.99537, 40.00267 ], [ 18.01108, 40.00336 ], [ 18.02027, 40.0102 ], [ 18.02215, 40.02167 ], [ 18.0158, 40.0362 ], [ 18.00514, 40.04487 ], [ 17.97836, 40.05166 ], [ 17.96746, 40.05732 ], [ 18.00294, 40.07445 ], [ 18.011, 40.09601 ], [ 17.99724, 40.12043 ], [ 17.96746, 40.14606 ], [ 17.94068, 40.16303 ], [ 17.92604, 40.17626 ], [ 17.91961, 40.19074 ], [ 17.917, 40.22687 ], [ 17.91114, 40.2403 ], [ 17.89967, 40.24909 ], [ 17.91277, 40.24909 ], [ 17.91277, 40.25532 ], [ 17.86313, 40.28563 ], [ 17.84767, 40.29003 ], [ 17.51205, 40.3037 ], [ 17.49391, 40.30744 ], [ 17.44044, 40.331 ], [ 17.39942, 40.331 ], [ 17.37469, 40.34858 ], [ 17.36817, 40.35151 ], [ 17.35125, 40.3548 ], [ 17.2964, 40.37946 ], [ 17.24, 40.39533 ], [ 17.2129, 40.4062 ], [ 17.20021, 40.4204 ], [ 17.22348, 40.42841 ], [ 17.24301, 40.44139 ], [ 17.24789, 40.45734 ], [ 17.22755, 40.47443 ], [ 17.24741, 40.48029 ], [ 17.29575, 40.47321 ], [ 17.31625, 40.48188 ], [ 17.32325, 40.49848 ], [ 17.30405, 40.49946 ], [ 17.26173, 40.48871 ], [ 17.26857, 40.49616 ], [ 17.24741, 40.50283 ], [ 17.22901, 40.49689 ], [ 17.2107, 40.48701 ], [ 17.18995, 40.48188 ], [ 17.18181, 40.4853 ], [ 17.16619, 40.50918 ], [ 17.15602, 40.5124 ], [ 17.13347, 40.51264 ], [ 17.12452, 40.51533 ], [ 17.04957, 40.51911 ], [ 16.97608, 40.49262 ], [ 16.91212, 40.44522 ], [ 16.78273, 40.30158 ], [ 16.7614, 40.2696 ], [ 16.73756, 40.211 ], [ 16.73072, 40.20067 ], [ 16.71599, 40.19359 ], [ 16.67945, 40.14606 ], [ 16.62452, 40.10798 ], [ 16.60475, 40.08446 ], [ 16.59693, 40.04678 ], [ 16.59938, 40.03413 ], [ 16.61362, 39.99665 ], [ 16.6316, 39.96621 ], [ 16.62176, 39.95356 ], [ 16.60548, 39.94294 ], [ 16.5892, 39.91983 ], [ 16.54225, 39.8854 ], [ 16.50815, 39.83759 ], [ 16.49171, 39.80549 ], [ 16.48976, 39.77521 ], [ 16.50213, 39.74706 ], [ 16.52858, 39.7215 ], [ 16.52858, 39.71467 ], [ 16.51564, 39.6896 ], [ 16.54591, 39.66087 ], [ 16.59148, 39.63679 ], [ 16.62485, 39.62531 ], [ 16.74977, 39.62002 ], [ 16.78248, 39.61164 ], [ 16.79811, 39.60346 ], [ 16.81609, 39.59105 ], [ 16.8309, 39.57616 ], [ 16.83717, 39.56045 ], [ 16.8462, 39.55268 ], [ 16.90602, 39.52973 ], [ 16.95297, 39.49921 ], [ 16.97088, 39.49494 ], [ 16.99537, 39.49274 ], [ 17.01149, 39.48615 ], [ 17.02345, 39.47541 ], [ 17.03582, 39.46076 ], [ 17.05714, 39.44164 ], [ 17.08855, 39.42259 ], [ 17.1242, 39.409 ], [ 17.1587, 39.4062 ], [ 17.12224, 39.33832 ], [ 17.11492, 39.28278 ], [ 17.11451, 39.26935 ], [ 17.11769, 39.25601 ], [ 17.1421, 39.22232 ], [ 17.14568, 39.21068 ], [ 17.14039, 39.1789 ], [ 17.12224, 39.12104 ], [ 17.12452, 39.09089 ], [ 17.15187, 39.04588 ], [ 17.15846, 39.04047 ], [ 17.19256, 39.03107 ], [ 17.20639, 39.02949 ], [ 17.17661, 39.01211 ], [ 17.17237, 39.00519 ], [ 17.17237, 38.96052 ], [ 17.13885, 38.93671 ], [ 17.13502, 38.9326 ], [ 17.1277, 38.92878 ], [ 17.11891, 38.91966 ], [ 17.10401, 38.89907 ], [ 17.09498, 38.91913 ], [ 17.07057, 38.9228 ], [ 17.04225, 38.91625 ], [ 17.02198, 38.90595 ], [ 16.99635, 38.92951 ], [ 16.98129, 38.9372 ], [ 16.95729, 38.94009 ], [ 16.93507, 38.93871 ], [ 16.83855, 38.9182 ], [ 16.72779, 38.87885 ], [ 16.68775, 38.85586 ], [ 16.67075, 38.84064 ], [ 16.61061, 38.81656 ], [ 16.58562, 38.79784 ], [ 16.57439, 38.78506 ], [ 16.56373, 38.75674 ], [ 16.55095, 38.7414 ], [ 16.53883, 38.72333 ], [ 16.53484, 38.6999 ], [ 16.54689, 38.69318 ], [ 16.54908, 38.68993 ], [ 16.54851, 38.67206 ], [ 16.55885, 38.59601 ], [ 16.577, 38.52855 ], [ 16.57716, 38.50288 ], [ 16.56959, 38.42951 ], [ 16.56137, 38.41633 ], [ 16.52198, 38.38715 ], [ 16.50815, 38.37153 ], [ 16.49757, 38.36929 ], [ 16.46705, 38.3487 ], [ 16.43507, 38.33999 ], [ 16.33985, 38.30085 ], [ 16.30633, 38.27709 ], [ 16.16944, 38.14322 ], [ 16.15187, 38.11083 ], [ 16.1255, 38.00483 ], [ 16.11085, 37.97362 ], [ 16.10133, 37.96052 ], [ 16.09002, 37.9492 ], [ 16.07716, 37.93989 ], [ 16.06316, 37.93268 ], [ 16.01588, 37.92471 ], [ 16.00099, 37.91901 ], [ 15.94215, 37.93309 ], [ 15.76149, 37.92524 ], [ 15.73487, 37.93098 ], [ 15.70826, 37.94099 ], [ 15.68442, 37.95352 ], [ 15.66578, 37.96686 ], [ 15.64552, 37.98835 ], [ 15.6351, 38.0091 ], [ 15.63836, 38.02774 ], [ 15.65846, 38.04255 ], [ 15.63266, 38.0742 ], [ 15.62403, 38.09211 ], [ 15.62745, 38.10737 ], [ 15.64161, 38.12592 ], [ 15.6478, 38.14313 ], [ 15.64649, 38.1621 ], [ 15.63795, 38.18594 ], [ 15.63282, 38.22028 ], [ 15.65056, 38.24103 ], [ 15.68426, 38.25312 ], [ 15.78647, 38.27802 ], [ 15.79566, 38.28555 ], [ 15.79868, 38.29072 ], [ 15.81284, 38.3006 ], [ 15.81617, 38.30606 ], [ 15.82976, 38.35102 ], [ 15.9048, 38.47394 ], [ 15.91782, 38.51679 ], [ 15.91603, 38.55036 ], [ 15.90008, 38.57827 ], [ 15.87078, 38.60423 ], [ 15.84995, 38.61335 ], [ 15.844, 38.61791 ], [ 15.83546, 38.62824 ], [ 15.83367, 38.63378 ], [ 15.8366, 38.64899 ], [ 15.84449, 38.66039 ], [ 15.86313, 38.66828 ], [ 15.9048, 38.67939 ], [ 15.96803, 38.71259 ], [ 16.00261, 38.72541 ], [ 16.04884, 38.72773 ], [ 16.12086, 38.72093 ], [ 16.136, 38.72382 ], [ 16.1526, 38.7309 ], [ 16.17921, 38.74828 ], [ 16.20094, 38.77643 ], [ 16.2151, 38.81415 ], [ 16.22169, 38.85659 ], [ 16.22006, 38.89907 ], [ 16.21469, 38.91901 ], [ 16.2046, 38.93407 ], [ 16.18963, 38.94355 ], [ 16.16896, 38.94684 ], [ 16.15431, 38.95502 ], [ 16.13966, 38.97378 ], [ 16.08302, 39.07526 ], [ 16.042, 39.31061 ], [ 16.03403, 39.34524 ], [ 15.9954, 39.43877 ], [ 15.95808, 39.47756 ], [ 15.93312, 39.51366 ], [ 15.9048, 39.53596 ], [ 15.87623, 39.55146 ], [ 15.86752, 39.56391 ], [ 15.8366, 39.65266 ], [ 15.81568, 39.6789 ], [ 15.80641, 39.6955 ], [ 15.78875, 39.79662 ], [ 15.78875, 39.79035 ], [ 15.78395, 39.81 ], [ 15.77882, 39.82014 ], [ 15.77133, 39.82453 ], [ 15.7697, 39.83015 ], [ 15.78191, 39.8686 ], [ 15.77442, 39.8911 ], [ 15.74155, 39.92959 ], [ 15.73414, 39.94375 ], [ 15.72804, 39.96418 ], [ 15.71315, 39.98102 ], [ 15.67888, 40.00886 ], [ 15.65162, 40.04365 ], [ 15.63038, 40.05768 ], [ 15.62469, 40.06489 ], [ 15.62428, 40.07779 ], [ 15.6102, 40.07319 ], [ 15.53492, 40.07779 ], [ 15.51313, 40.06768 ], [ 15.49531, 40.04672 ], [ 15.45981, 40.02936 ], [ 15.4296, 39.99979 ], [ 15.4101, 39.99397 ], [ 15.36094, 39.99889 ], [ 15.34316, 40.00415 ], [ 15.3143, 40.03376 ], [ 15.30274, 40.0362 ], [ 15.28305, 40.02985 ], [ 15.26124, 40.02936 ], [ 15.26124, 40.0362 ], [ 15.27914, 40.04767 ], [ 15.26344, 40.07372 ], [ 15.2339, 40.1 ], [ 15.20965, 40.11188 ], [ 15.18995, 40.11913 ], [ 15.12721, 40.16962 ], [ 15.1128, 40.17479 ], [ 15.09588, 40.17308 ], [ 15.06568, 40.16657 ], [ 15.04721, 40.16893 ], [ 15.03492, 40.17536 ], [ 15.0228, 40.19563 ], [ 15.00312, 40.21026 ], [ 14.9759, 40.21931 ], [ 14.95709, 40.23155 ], [ 14.93814, 40.22784 ], [ 14.92213, 40.23802 ], [ 14.91114, 40.24164 ], [ 14.90691, 40.25861 ], [ 14.9319, 40.28555 ], [ 14.93914, 40.30707 ], [ 14.93238, 40.32429 ], [ 14.93238, 40.33373 ], [ 14.94215, 40.33784 ], [ 14.95395, 40.33991 ], [ 14.96437, 40.34516 ], [ 14.97291, 40.352 ], [ 14.99449, 40.35843 ], [ 15.00043, 40.36883 ], [ 14.99827, 40.39756 ], [ 14.97592, 40.43146 ], [ 14.88885, 40.57307 ], [ 14.8615, 40.60716 ], [ 14.83546, 40.63264 ], [ 14.80974, 40.65298 ], [ 14.78199, 40.66987 ], [ 14.75221, 40.6767 ], [ 14.71998, 40.66682 ], [ 14.69044, 40.64912 ], [ 14.67807, 40.64663 ], [ 14.62574, 40.64907 ], [ 14.61329, 40.6459 ], [ 14.5713, 40.61774 ], [ 14.5442, 40.61359 ], [ 14.51637, 40.61986 ], [ 14.48658, 40.63264 ], [ 14.47136, 40.62466 ], [ 14.42205, 40.61555 ], [ 14.40154, 40.60212 ], [ 14.3558, 40.58364 ], [ 14.34262, 40.57062 ], [ 14.32984, 40.58446 ], [ 14.32797, 40.60541 ], [ 14.33774, 40.62442 ], [ 14.35963, 40.63264 ], [ 14.37973, 40.63386 ], [ 14.38738, 40.63695 ], [ 14.39821, 40.64384 ], [ 14.4048, 40.65603 ], [ 14.44421, 40.68599 ], [ 14.47637, 40.6951 ], [ 14.47975, 40.71149 ], [ 14.47413, 40.72968 ], [ 14.46062, 40.74421 ], [ 14.44264, 40.75507 ], [ 14.42129, 40.75093 ], [ 14.39443, 40.76157 ], [ 14.38255, 40.77227 ], [ 14.36661, 40.78018 ], [ 14.31235, 40.82811 ], [ 14.2942, 40.83877 ], [ 14.27573, 40.84003 ], [ 14.24838, 40.83771 ], [ 14.22364, 40.83137 ], [ 14.21274, 40.82075 ], [ 14.20346, 40.80121 ], [ 14.1822, 40.80092 ], [ 14.1656, 40.81575 ], [ 14.13523, 40.81855 ], [ 14.1115, 40.82954 ], [ 14.09596, 40.83381 ], [ 14.08253, 40.83128 ], [ 14.07618, 40.82221 ], [ 14.08253, 40.78351 ], [ 14.07528, 40.78628 ], [ 14.0477, 40.78959 ], [ 14.04115, 40.79648 ], [ 14.05226, 40.83759 ], [ 14.04446, 40.87421 ], [ 14.02134, 40.92183 ], [ 13.96534, 40.99641 ], [ 13.93019, 41.01415 ], [ 13.91798, 41.02367 ], [ 13.91456, 41.03315 ], [ 13.91066, 41.06464 ], [ 13.88432, 41.1048 ], [ 13.85173, 41.14732 ], [ 13.79049, 41.20586 ], [ 13.76349, 41.22417 ], [ 16.56077, 41.22417 ], [ 16.59392, 41.20698 ] ] ], [ [ [ 13.57545, 41.20808 ], [ 13.54396, 41.20661 ], [ 13.53443, 41.20808 ], [ 13.52524, 41.2154 ], [ 13.52012, 41.22417 ], [ 13.5691, 41.22417 ], [ 13.57545, 41.20808 ] ] ], [ [ [ 13.50709, 41.22175 ], [ 13.49969, 41.22175 ], [ 13.49698, 41.22417 ], [ 13.50932, 41.22417 ], [ 13.50709, 41.22175 ] ] ], [ [ [ 13.06821, 41.22175 ], [ 13.05833, 41.22417 ], [ 13.07944, 41.22417 ], [ 13.06821, 41.22175 ] ] ] ] } },
{ "type": "Feature", "properties": { "kind": "land" }, "geometry": { "type": "MultiPolygon", "coordinates": [ [ [ [ 12.28696, 37.93854 ], [ 12.30543, 37.94497 ], [ 12.31422, 37.94636 ], [ 12.3213, 37.9405 ], [ 12.33676, 37.93305 ], [ 12.35467, 37.92699 ], [ 12.36883, 37.92524 ], [ 12.35768, 37.91405 ], [ 12.34213, 37.91323 ], [ 12.32618, 37.91836 ], [ 12.31422, 37.92524 ], [ 12.29965, 37.91926 ], [ 12.28777, 37.92154 ], [ 12.27866, 37.92919 ], [ 12.2732, 37.93952 ], [ 12.28696, 37.93854 ] ] ], [ [ [ 14.96632, 38.41869 ], [ 14.98243, 38.41242 ], [ 14.99366, 38.40302 ], [ 15.00172, 38.39126 ], [ 15.00733, 38.37767 ], [ 14.98683, 38.36408 ], [ 14.96355, 38.38166 ], [ 14.94825, 38.39643 ], [ 14.94532, 38.41226 ], [ 14.95883, 38.43293 ], [ 14.96632, 38.43293 ], [ 14.96632, 38.41869 ] ] ], [ [ [ 14.89942, 38.48168 ], [ 14.90065, 38.49868 ], [ 14.90968, 38.51533 ], [ 14.92482, 38.52237 ], [ 14.95786, 38.52204 ], [ 14.96608, 38.51626 ], [ 14.95883, 38.50186 ], [ 14.97934, 38.48753 ], [ 14.97934, 38.48139 ], [ 14.95265, 38.48139 ], [ 14.95786, 38.46955 ], [ 14.96632, 38.46088 ], [ 14.96632, 38.45344 ], [ 14.94874, 38.45091 ], [ 14.93458, 38.45864 ], [ 14.92156, 38.46882 ], [ 14.90773, 38.47394 ], [ 14.89942, 38.48168 ] ] ], [ [ [ 14.86166, 38.53929 ], [ 14.82399, 38.55183 ], [ 14.79379, 38.5716 ], [ 14.81495, 38.58381 ], [ 14.85141, 38.58491 ], [ 14.86695, 38.58112 ], [ 14.87696, 38.56953 ], [ 14.86891, 38.56049 ], [ 14.86329, 38.54902 ], [ 14.86166, 38.53929 ] ] ], [ [ [ 14.34278, 38.54727 ], [ 14.35719, 38.55121 ], [ 14.36085, 38.53905 ], [ 14.34645, 38.53514 ], [ 14.34278, 38.54727 ] ] ], [ [ [ 14.5796, 38.56615 ], [ 14.58522, 38.56098 ], [ 14.58546, 38.55744 ], [ 14.57358, 38.55655 ], [ 14.55161, 38.56159 ], [ 14.54371, 38.57453 ], [ 14.54249, 38.58686 ], [ 14.54623, 38.58796 ], [ 14.56398, 38.58454 ], [ 14.57602, 38.57665 ], [ 14.5796, 38.56615 ] ] ], [ [ [ 13.18572, 38.71752 ], [ 13.19597, 38.71149 ], [ 13.19744, 38.70832 ], [ 13.17677, 38.69302 ], [ 13.16521, 38.69107 ], [ 13.15349, 38.69477 ], [ 13.15309, 38.7023 ], [ 13.15789, 38.70987 ], [ 13.16928, 38.71727 ], [ 13.18572, 38.71752 ] ] ], [ [ [ 15.23463, 38.80781 ], [ 15.23927, 38.80402 ], [ 15.23748, 38.79597 ], [ 15.22462, 38.7768 ], [ 15.21746, 38.77302 ], [ 15.20607, 38.77521 ], [ 15.18702, 38.78901 ], [ 15.18702, 38.79271 ], [ 15.1941, 38.79808 ], [ 15.20362, 38.80158 ], [ 15.21209, 38.81045 ], [ 15.2186, 38.81196 ], [ 15.23463, 38.80781 ] ] ], [ [ [ 13.42416, 40.80024 ], [ 13.43198, 40.80146 ], [ 13.42693, 40.79084 ], [ 13.41472, 40.78587 ], [ 13.41896, 40.7956 ], [ 13.42416, 40.80024 ] ] ], [ [ [ 12.07789, 37.96011 ], [ 12.07927, 37.95026 ], [ 12.06479, 37.95083 ], [ 12.04762, 37.96076 ], [ 12.03045, 37.98436 ], [ 12.03598, 37.99103 ], [ 12.05356, 37.99242 ], [ 12.06446, 37.98623 ], [ 12.07228, 37.96792 ], [ 12.07789, 37.96011 ] ] ] ] } },
{ "type": "Feature", "properties": { "kind": "land" }, "geometry": { "type": "MultiPolygon", "coordinates": [ [ [ [ 12.03761, 36.80663 ], [ 12.05152, 36.79035 ], [ 12.05348, 36.76765 ], [ 12.03061, 36.74136 ], [ 11.9961, 36.74494 ], [ 11.96119, 36.7652 ], [ 11.93735, 36.78876 ], [ 11.92498, 36.81196 ], [ 11.92221, 36.82836 ], [ 11.93434, 36.83592 ], [ 11.95135, 36.84276 ], [ 11.95769, 36.84056 ], [ 11.9673, 36.8312 ], [ 11.98732, 36.82416 ], [ 11.99293, 36.82538 ], [ 11.99952, 36.83592 ], [ 12.03761, 36.80663 ] ] ], [ [ [ 13.93483, 40.70563 ], [ 13.91977, 40.70449 ], [ 13.90349, 40.70002 ], [ 13.89015, 40.69416 ], [ 13.88201, 40.69953 ], [ 13.85971, 40.70775 ], [ 13.84913, 40.71528 ], [ 13.85613, 40.73485 ], [ 13.8615, 40.74405 ], [ 13.87013, 40.74872 ], [ 13.8628, 40.7624 ], [ 13.88315, 40.7624 ], [ 13.9463, 40.74518 ], [ 13.96583, 40.73505 ], [ 13.96266, 40.72895 ], [ 13.96241, 40.72313 ], [ 13.96583, 40.71528 ], [ 13.94467, 40.70161 ], [ 13.93483, 40.70563 ] ] ] ] } },
{ "type": "Feature", "properties": { "kind": "land" }, "geometry": { "type": "Polygon", "coordinates": [ [ [ 15.55926, 38.30012 ], [ 15.61598, 38.28022 ], [ 15.65162, 38.2753 ], [ 15.64829, 38.26675 ], [ 15.64243, 38.26227 ], [ 15.63445, 38.26093 ], [ 15.62428, 38.26166 ], [ 15.58375, 38.24042 ], [ 15.56967, 38.22696 ], [ 15.563, 38.2143 ], [ 15.55991, 38.19977 ], [ 15.57594, 38.20018 ], [ 15.52703, 38.13679 ], [ 15.50034, 38.08495 ], [ 15.39259, 37.97614 ], [ 15.30274, 37.86441 ], [ 15.28346, 37.83295 ], [ 15.26629, 37.81192 ], [ 15.24122, 37.79556 ], [ 15.21306, 37.76146 ], [ 15.20655, 37.74775 ], [ 15.20826, 37.73705 ], [ 15.2186, 37.71809 ], [ 15.22023, 37.70673 ], [ 15.21608, 37.69672 ], [ 15.20216, 37.68537 ], [ 15.19907, 37.67573 ], [ 15.19679, 37.6551 ], [ 15.18458, 37.6258 ], [ 15.17856, 37.60432 ], [ 15.16383, 37.56769 ], [ 15.1159, 37.52228 ], [ 15.09669, 37.49445 ], [ 15.09156, 37.47748 ], [ 15.08953, 37.45946 ], [ 15.09205, 37.36054 ], [ 15.09669, 37.3437 ], [ 15.10353, 37.32978 ], [ 15.11069, 37.32184 ], [ 15.18002, 37.29076 ], [ 15.21746, 37.28498 ], [ 15.23666, 37.27473 ], [ 15.25196, 37.25772 ], [ 15.26124, 37.23383 ], [ 15.24488, 37.24616 ], [ 15.23561, 37.24193 ], [ 15.22885, 37.23029 ], [ 15.22023, 37.22016 ], [ 15.22169, 37.23745 ], [ 15.21583, 37.2447 ], [ 15.20541, 37.2447 ], [ 15.19288, 37.23998 ], [ 15.19907, 37.22761 ], [ 15.18344, 37.20746 ], [ 15.19467, 37.17634 ], [ 15.21648, 37.15522 ], [ 15.23325, 37.16486 ], [ 15.24757, 37.15868 ], [ 15.24757, 37.15184 ], [ 15.22918, 37.14964 ], [ 15.23178, 37.13491 ], [ 15.24659, 37.11823 ], [ 15.26466, 37.1103 ], [ 15.28883, 37.10838 ], [ 15.30323, 37.10122 ], [ 15.30787, 37.08666 ], [ 15.30274, 37.06249 ], [ 15.28793, 37.069 ], [ 15.28199, 37.06086 ], [ 15.2837, 37.04841 ], [ 15.29184, 37.04198 ], [ 15.31227, 37.04401 ], [ 15.32106, 37.04023 ], [ 15.32944, 37.02774 ], [ 15.33237, 37.01162 ], [ 15.32472, 37.00849 ], [ 15.31422, 37.01244 ], [ 15.30893, 37.01777 ], [ 15.26808, 37.00043 ], [ 15.27491, 36.9936 ], [ 15.26385, 36.98713 ], [ 15.26808, 36.98054 ], [ 15.26808, 36.97309 ], [ 15.24448, 36.97207 ], [ 15.22674, 36.96479 ], [ 15.21168, 36.95649 ], [ 15.19606, 36.95262 ], [ 15.17465, 36.94408 ], [ 15.15838, 36.92422 ], [ 15.10768, 36.82014 ], [ 15.10662, 36.80858 ], [ 15.094, 36.79955 ], [ 15.09889, 36.77945 ], [ 15.1172, 36.74714 ], [ 15.13494, 36.68769 ], [ 15.13429, 36.6752 ], [ 15.11451, 36.6599 ], [ 15.09392, 36.65493 ], [ 15.07358, 36.65913 ], [ 15.05519, 36.67145 ], [ 15.0407, 36.68769 ], [ 15.03305, 36.69392 ], [ 15.02101, 36.69937 ], [ 15.00717, 36.70279 ], [ 14.99781, 36.70222 ], [ 14.99366, 36.69595 ], [ 14.98243, 36.68887 ], [ 14.95729, 36.69782 ], [ 14.91863, 36.71988 ], [ 14.88217, 36.73066 ], [ 14.84685, 36.72626 ], [ 14.78077, 36.69937 ], [ 14.77345, 36.71003 ], [ 14.76092, 36.7062 ], [ 14.74431, 36.71914 ], [ 14.68458, 36.72602 ], [ 14.67164, 36.74372 ], [ 14.65895, 36.75381 ], [ 14.60011, 36.77212 ], [ 14.5822, 36.78132 ], [ 14.56593, 36.77831 ], [ 14.48732, 36.79336 ], [ 14.47576, 36.80492 ], [ 14.39454, 36.94501 ], [ 14.36988, 36.97309 ], [ 14.27882, 37.04401 ], [ 14.20851, 37.08112 ], [ 14.12631, 37.11225 ], [ 14.08863, 37.11774 ], [ 13.97633, 37.1103 ], [ 13.9673, 37.10822 ], [ 13.94858, 37.09882 ], [ 13.93849, 37.09593 ], [ 13.89438, 37.10082 ], [ 13.83269, 37.13955 ], [ 13.79461, 37.15184 ], [ 13.75164, 37.159 ], [ 13.71583, 37.17137 ], [ 13.68344, 37.18936 ], [ 13.59881, 37.25674 ], [ 13.56918, 37.2735 ], [ 13.53443, 37.28217 ], [ 13.48862, 37.28848 ], [ 13.45265, 37.29881 ], [ 13.42156, 37.3144 ], [ 13.37224, 37.34614 ], [ 13.3296, 37.36628 ], [ 13.31129, 37.38085 ], [ 13.30201, 37.38573 ], [ 13.27801, 37.3937 ], [ 13.25327, 37.43179 ], [ 13.22535, 37.44603 ], [ 13.21404, 37.45808 ], [ 13.20607, 37.46393 ], [ 13.19459, 37.46654 ], [ 13.18922, 37.46971 ], [ 13.17937, 37.48383 ], [ 13.17408, 37.48701 ], [ 13.05152, 37.50068 ], [ 13.03679, 37.49486 ], [ 13.02638, 37.49323 ], [ 13.01686, 37.49754 ], [ 13.01043, 37.5069 ], [ 13.00416, 37.52709 ], [ 13.00001, 37.53547 ], [ 12.97413, 37.55744 ], [ 12.94264, 37.56851 ], [ 12.86215, 37.5764 ], [ 12.78094, 37.5742 ], [ 12.69776, 37.56273 ], [ 12.65935, 37.56513 ], [ 12.63624, 37.58222 ], [ 12.59474, 37.63788 ], [ 12.57781, 37.652 ], [ 12.56349, 37.65778 ], [ 12.52361, 37.65835 ], [ 12.5062, 37.66551 ], [ 12.48902, 37.68268 ], [ 12.47438, 37.70295 ], [ 12.46502, 37.71979 ], [ 12.46046, 37.73461 ], [ 12.45631, 37.75975 ], [ 12.44801, 37.77131 ], [ 12.43629, 37.78315 ], [ 12.42701, 37.79702 ], [ 12.42742, 37.80927 ], [ 12.44459, 37.81599 ], [ 12.44606, 37.81184 ], [ 12.46502, 37.82282 ], [ 12.46306, 37.82575 ], [ 12.47023, 37.85342 ], [ 12.47242, 37.85419 ], [ 12.47771, 37.87254 ], [ 12.47869, 37.88117 ], [ 12.47674, 37.88593 ], [ 12.46778, 37.89712 ], [ 12.46412, 37.91291 ], [ 12.49049, 37.95401 ], [ 12.49659, 37.98062 ], [ 12.50294, 37.99706 ], [ 12.50416, 38.01122 ], [ 12.49293, 38.02143 ], [ 12.52345, 38.03144 ], [ 12.54965, 38.05484 ], [ 12.57635, 38.07172 ], [ 12.60841, 38.0624 ], [ 12.63868, 38.07949 ], [ 12.65162, 38.0915 ], [ 12.65691, 38.10737 ], [ 12.66245, 38.11628 ], [ 12.67604, 38.11587 ], [ 12.7046, 38.11083 ], [ 12.72535, 38.12592 ], [ 12.72397, 38.15034 ], [ 12.7199, 38.17548 ], [ 12.73178, 38.19278 ], [ 12.7378, 38.18098 ], [ 12.74936, 38.18207 ], [ 12.76092, 38.18098 ], [ 12.76612, 38.16267 ], [ 12.79078, 38.11709 ], [ 12.81837, 38.07795 ], [ 12.82879, 38.06989 ], [ 12.85694, 38.05858 ], [ 12.86891, 38.05134 ], [ 12.86964, 38.04255 ], [ 12.90113, 38.02806 ], [ 12.94418, 38.03286 ], [ 13.02735, 38.0624 ], [ 13.06137, 38.08348 ], [ 13.06967, 38.09113 ], [ 13.0713, 38.09553 ], [ 13.06617, 38.12303 ], [ 13.05681, 38.13272 ], [ 13.0547, 38.14183 ], [ 13.08937, 38.166 ], [ 13.08375, 38.17471 ], [ 13.08961, 38.18334 ], [ 13.10092, 38.19009 ], [ 13.11248, 38.19278 ], [ 13.12241, 38.19099 ], [ 13.15699, 38.17967 ], [ 13.17937, 38.17621 ], [ 13.2072, 38.17609 ], [ 13.23032, 38.18464 ], [ 13.23902, 38.20702 ], [ 13.25441, 38.20254 ], [ 13.26596, 38.20527 ], [ 13.27703, 38.21044 ], [ 13.31813, 38.22065 ], [ 13.32325, 38.21796 ], [ 13.32838, 38.20018 ], [ 13.36622, 38.17967 ], [ 13.37192, 38.1728 ], [ 13.3733, 38.14069 ], [ 13.39137, 38.10318 ], [ 13.51352, 38.11054 ], [ 13.54127, 38.09406 ], [ 13.53932, 38.07685 ], [ 13.54086, 38.06753 ], [ 13.54737, 38.05622 ], [ 13.55747, 38.04914 ], [ 13.58709, 38.03913 ], [ 13.62241, 38.0152 ], [ 13.65113, 38.00096 ], [ 13.69776, 37.9936 ], [ 13.71192, 37.98794 ], [ 13.70777, 37.98509 ], [ 13.70509, 37.98045 ], [ 13.72674, 37.9809 ], [ 13.79078, 37.97362 ], [ 13.81267, 37.97793 ], [ 13.85719, 37.99673 ], [ 13.89829, 38.00446 ], [ 13.92482, 38.02196 ], [ 13.93849, 38.02888 ], [ 14.00717, 38.03828 ], [ 14.02052, 38.04938 ], [ 14.06251, 38.03022 ], [ 14.08326, 38.02383 ], [ 14.10629, 38.02143 ], [ 14.12094, 38.02261 ], [ 14.15138, 38.02888 ], [ 14.2732, 38.01512 ], [ 14.33123, 38.01801 ], [ 14.38461, 38.02953 ], [ 14.4319, 38.04938 ], [ 14.46412, 38.03718 ], [ 14.51173, 38.04438 ], [ 14.63461, 38.08149 ], [ 14.66774, 38.09919 ], [ 14.69597, 38.12104 ], [ 14.73373, 38.15762 ], [ 14.7448, 38.16136 ], [ 14.7776, 38.15925 ], [ 14.79811, 38.16035 ], [ 14.87403, 38.17569 ], [ 14.88803, 38.1826 ], [ 14.90707, 38.18769 ], [ 14.93531, 38.18594 ], [ 14.945, 38.18179 ], [ 14.96306, 38.1634 ], [ 14.96974, 38.15925 ], [ 14.98178, 38.15827 ], [ 15.00733, 38.1518 ], [ 15.03907, 38.15331 ], [ 15.049, 38.1518 ], [ 15.0687, 38.13129 ], [ 15.0879, 38.12824 ], [ 15.10532, 38.13349 ], [ 15.12257, 38.14106 ], [ 15.17742, 38.15632 ], [ 15.2033, 38.18329 ], [ 15.24073, 38.24116 ], [ 15.23609, 38.25104 ], [ 15.24073, 38.26166 ], [ 15.23715, 38.2648 ], [ 15.24317, 38.2648 ], [ 15.24635, 38.25434 ], [ 15.24073, 38.23029 ], [ 15.24537, 38.21723 ], [ 15.25758, 38.21019 ], [ 15.27418, 38.20751 ], [ 15.29184, 38.20702 ], [ 15.32106, 38.21088 ], [ 15.39967, 38.23257 ], [ 15.42189, 38.24457 ], [ 15.43377, 38.25316 ], [ 15.47291, 38.26781 ], [ 15.51287, 38.29759 ], [ 15.52866, 38.30264 ], [ 15.55926, 38.30012 ] ] ] } },
{ "type": "Feature", "properties": { "kind": "land" }, "geometry": { "type": "MultiPolygon", "coordinates": [ [ [ [ 10.80576, 37.14069 ], [ 10.82293, 37.11831 ], [ 10.79599, 37.11827 ], [ 10.79029, 37.12718 ], [ 10.79371, 37.13198 ], [ 10.799, 37.13512 ], [ 10.8003, 37.1385 ], [ 10.80576, 37.14069 ] ] ], [ [ [ 14.2575, 40.55671 ], [ 14.26214, 40.55398 ], [ 14.25497, 40.54645 ], [ 14.24619, 40.54389 ], [ 14.2374, 40.5445 ], [ 14.20834, 40.53795 ], [ 14.19597, 40.54116 ], [ 14.19858, 40.5585 ], [ 14.21013, 40.56098 ], [ 14.2575, 40.55671 ] ] ], [ [ [ 14.03069, 40.76427 ], [ 14.03533, 40.75983 ], [ 14.02719, 40.75967 ], [ 14.02182, 40.75719 ], [ 14.02589, 40.75031 ], [ 14.01995, 40.75007 ], [ 14.01352, 40.74754 ], [ 14.0171, 40.73725 ], [ 14.01059, 40.73981 ], [ 14.00587, 40.74689 ], [ 14.00384, 40.74372 ], [ 14.00099, 40.74396 ], [ 14.00644, 40.75955 ], [ 14.00408, 40.76219 ], [ 14.01311, 40.76923 ], [ 14.01767, 40.77029 ], [ 14.02141, 40.76695 ], [ 14.03069, 40.76427 ] ] ], [ [ [ 12.98219, 40.93757 ], [ 12.98959, 40.93651 ], [ 12.99179, 40.93317 ], [ 12.9804, 40.92837 ], [ 12.9686, 40.91946 ], [ 12.96095, 40.90323 ], [ 12.96323, 40.89802 ], [ 12.96632, 40.89545 ], [ 12.96648, 40.89305 ], [ 12.95834, 40.88198 ], [ 12.952, 40.88154 ], [ 12.9489, 40.88569 ], [ 12.94996, 40.8909 ], [ 12.94785, 40.89558 ], [ 12.94207, 40.89981 ], [ 12.9485, 40.91791 ], [ 12.96453, 40.92548 ], [ 12.96811, 40.93195 ], [ 12.98219, 40.93757 ] ] ], [ [ [ 12.85157, 40.94139 ], [ 12.85483, 40.94469 ], [ 12.85312, 40.94798 ], [ 12.85727, 40.95002 ], [ 12.86044, 40.94831 ], [ 12.86166, 40.93069 ], [ 12.85043, 40.92601 ], [ 12.84913, 40.92821 ], [ 12.85157, 40.94139 ] ] ], [ [ [ 13.05356, 40.97435 ], [ 13.06219, 40.97553 ], [ 13.06096, 40.96524 ], [ 13.05348, 40.96524 ], [ 13.04998, 40.96695 ], [ 13.05356, 40.97435 ] ] ] ] } },
{ "type": "Feature", "properties": { "kind": "island" }, "geometry": { "type": "Polygon", "coordinates": [ [ [ 10.80576, 37.14069 ], [ 10.82293, 37.11831 ], [ 10.79599, 37.11827 ], [ 10.79029, 37.12718 ], [ 10.79371, 37.13198 ], [ 10.799, 37.13512 ], [ 10.8003, 37.1385 ], [ 10.80576, 37.14069 ] ] ] } },
{ "type": "Feature", "properties": { "kind": "island" }, "geometry": { "type": "Polygon", "coordinates": [ [ [ 14.2575, 40.55671 ], [ 14.26214, 40.55398 ], [ 14.25497, 40.54645 ], [ 14.24619, 40.54389 ], [ 14.2374, 40.5445 ], [ 14.20834, 40.53795 ], [ 14.19597, 40.54116 ], [ 14.19858, 40.5585 ], [ 14.21013, 40.56098 ], [ 14.2575, 40.55671 ] ] ] } },
{ "type": "Feature", "properties": { "kind": "island" }, "geometry": { "type": "Polygon", "coordinates": [ [ [ 14.03069, 40.76427 ], [ 14.03533, 40.75983 ], [ 14.02719, 40.75967 ], [ 14.02182, 40.75719 ], [ 14.02589, 40.75031 ], [ 14.01995, 40.75007 ], [ 14.01352, 40.74754 ], [ 14.0171, 40.73725 ], [ 14.01059, 40.73981 ], [ 14.00587, 40.74689 ], [ 14.00384, 40.74372 ], [ 14.00099, 40.74396 ], [ 14.00644, 40.75955 ], [ 14.00408, 40.76219 ], [ 14.01311, 40.76923 ], [ 14.01767, 40.77029 ], [ 14.02141, 40.76695 ], [ 14.03069, 40.76427 ] ] ] } },
{ "type": "Feature", "properties": { "kind": "island" }, "geometry": { "type": "Polygon", "coordinates": [ [ [ 12.98219, 40.93757 ], [ 12.98959, 40.93651 ], [ 12.99179, 40.93317 ], [ 12.9804, 40.92837 ], [ 12.9686, 40.91946 ], [ 12.96095, 40.90323 ], [ 12.96323, 40.89802 ], [ 12.96632, 40.89545 ], [ 12.96648, 40.89305 ], [ 12.95834, 40.88198 ], [ 12.952, 40.88154 ], [ 12.9489, 40.88569 ], [ 12.94996, 40.8909 ], [ 12.94785, 40.89558 ], [ 12.94207, 40.89981 ], [ 12.9485, 40.91791 ], [ 12.96453, 40.92548 ], [ 12.96811, 40.93195 ], [ 12.98219, 40.93757 ] ] ] } },
{ "type": "Feature", "properties": { "kind": "island" }, "geometry": { "type": "Polygon", "coordinates": [ [ [ 12.85157, 40.94139 ], [ 12.85483, 40.94469 ], [ 12.85312, 40.94798 ], [ 12.85727, 40.95002 ], [ 12.86044, 40.94831 ], [ 12.86166, 40.93069 ], [ 12.85043, 40.92601 ], [ 12.84913, 40.92821 ], [ 12.85157, 40.94139 ] ] ] } },
{ "type": "Feature", "properties": { "kind": "island" }, "geometry": { "type": "Polygon", "coordinates": [ [ [ 13.05356, 40.97435 ], [ 13.06219, 40.97553 ], [ 13.06096, 40.96524 ], [ 13.05348, 40.96524 ], [ 13.04998, 40.96695 ], [ 13.05356, 40.97435 ] ] ] } }
]
}
