{
"type": "FeatureCollection",
"name": "land",
"crs": { "type": "name", "properties": { "name": "urn:ogc:def:crs:OGC:1.3:CRS84" } },
"xy_coordinate_resolution": 1e-05,
"features": [
{ "type": "Feature", "properties": { "kind": "land" }, "geometry": { "type": "MultiPolygon", "coordinates": [ [ [ [ 22.72299, 39.89777 ], [ 22.73048, 39.8854 ], [ 22.7409, 39.8747 ], [ 22.77866, 39.84984 ], [ 22.80112, 39.84032 ], [ 22.81528, 39.82905 ], [ 22.84034, 39.80341 ], [ 22.85027, 39.79051 ], [ 22.85865, 39.77326 ], [ 22.86476, 39.75316 ], [ 22.8672, 39.73176 ], [ 22.87176, 39.71581 ], [ 22.90187, 39.65884 ], [ 22.92514, 39.59951 ], [ 22.93946, 39.58063 ], [ 22.95289, 39.57001 ], [ 23.00489, 39.5434 ], [ 23.05592, 39.52725 ], [ 23.09742, 39.50178 ], [ 23.10182, 39.49738 ], [ 23.11411, 39.46699 ], [ 23.12566, 39.45441 ], [ 23.21095, 39.37934 ], [ 23.22381, 39.35859 ], [ 23.27133, 39.32294 ], [ 23.29225, 39.26899 ], [ 23.3423, 39.19261 ], [ 23.34376, 39.17963 ], [ 23.33326, 39.17438 ], [ 23.30128, 39.15135 ], [ 23.28175, 39.14614 ], [ 23.24366, 39.14167 ], [ 23.20973, 39.13182 ], [ 23.22348, 39.12519 ], [ 23.23024, 39.12442 ], [ 23.23024, 39.11815 ], [ 23.2142, 39.11262 ], [ 23.20362, 39.10456 ], [ 23.19142, 39.10781 ], [ 23.1692, 39.10659 ], [ 23.14625, 39.10175 ], [ 23.11549, 39.08828 ], [ 23.09213, 39.08934 ], [ 23.05201, 39.09772 ], [ 23.06137, 39.11176 ], [ 23.07309, 39.12442 ], [ 23.06772, 39.13801 ], [ 23.08107, 39.1472 ], [ 23.11411, 39.15913 ], [ 23.11394, 39.14631 ], [ 23.1006, 39.10456 ], [ 23.17172, 39.13496 ], [ 23.18238, 39.14614 ], [ 23.17555, 39.15546 ], [ 23.18133, 39.15868 ], [ 23.19093, 39.15811 ], [ 23.19606, 39.15575 ], [ 23.19923, 39.15143 ], [ 23.20631, 39.15705 ], [ 23.21355, 39.16812 ], [ 23.21713, 39.17963 ], [ 23.21225, 39.1905 ], [ 23.18637, 39.22443 ], [ 23.17555, 39.23428 ], [ 23.17986, 39.2508 ], [ 23.16912, 39.26854 ], [ 23.15138, 39.28486 ], [ 23.13461, 39.29694 ], [ 23.11549, 39.30744 ], [ 23.09816, 39.3122 ], [ 23.02052, 39.31753 ], [ 23.02101, 39.32559 ], [ 23.01857, 39.33047 ], [ 23.00343, 39.35244 ], [ 22.99806, 39.35712 ], [ 22.96388, 39.35712 ], [ 22.94117, 39.36176 ], [ 22.93588, 39.36058 ], [ 22.94288, 39.35098 ], [ 22.94288, 39.34414 ], [ 22.93279, 39.336 ], [ 22.92905, 39.3242 ], [ 22.93214, 39.3122 ], [ 22.94288, 39.30317 ], [ 22.91928, 39.29865 ], [ 22.87989, 39.29556 ], [ 22.84254, 39.28848 ], [ 22.82618, 39.27216 ], [ 22.82423, 39.23347 ], [ 22.82618, 39.22126 ], [ 22.85401, 39.15913 ], [ 22.8602, 39.15913 ], [ 22.86801, 39.16975 ], [ 22.88087, 39.17963 ], [ 22.87696, 39.19038 ], [ 22.88209, 39.19099 ], [ 22.89015, 39.18427 ], [ 22.89503, 39.1728 ], [ 22.90187, 39.17963 ], [ 22.9109, 39.16332 ], [ 22.91456, 39.14378 ], [ 22.92058, 39.12515 ], [ 22.93605, 39.1114 ], [ 22.93588, 39.11612 ], [ 22.94288, 39.11815 ], [ 22.93605, 39.13182 ], [ 22.96111, 39.11905 ], [ 22.97332, 39.10196 ], [ 22.98243, 39.08442 ], [ 22.99806, 39.06977 ], [ 22.99195, 39.05732 ], [ 22.99806, 39.04926 ], [ 22.96648, 39.03465 ], [ 22.95883, 39.02513 ], [ 22.96388, 39.00898 ], [ 23.01531, 39.03319 ], [ 23.04249, 39.04011 ], [ 23.07309, 39.04247 ], [ 23.07309, 39.03628 ], [ 23.06471, 39.02875 ], [ 23.03224, 39.01512 ], [ 23.02329, 39.00845 ], [ 23.01905, 39.00129 ], [ 23.01173, 38.98102 ], [ 23.00717, 38.97394 ], [ 23.00025, 38.96646 ], [ 22.98455, 38.95433 ], [ 22.97869, 38.95327 ], [ 22.96412, 38.95527 ], [ 22.95639, 38.95433 ], [ 22.94435, 38.94733 ], [ 22.93605, 38.94684 ], [ 22.94288, 38.9326 ], [ 22.92856, 38.93159 ], [ 22.90846, 38.92194 ], [ 22.89845, 38.91962 ], [ 22.85987, 38.92853 ], [ 22.84653, 38.92642 ], [ 22.84181, 38.91918 ], [ 22.83668, 38.89647 ], [ 22.8296, 38.89167 ], [ 22.8047, 38.89102 ], [ 22.79656, 38.88711 ], [ 22.792, 38.878 ], [ 22.77768, 38.87849 ], [ 22.75457, 38.87397 ], [ 22.73268, 38.87238 ], [ 22.72316, 38.88174 ], [ 22.71827, 38.8898 ], [ 22.70777, 38.8874 ], [ 22.68898, 38.878 ], [ 22.68043, 38.88052 ], [ 22.65838, 38.89167 ], [ 22.65642, 38.89435 ], [ 22.62159, 38.9145 ], [ 22.61329, 38.91307 ], [ 22.58082, 38.89362 ], [ 22.55209, 38.88923 ], [ 22.54526, 38.88508 ], [ 22.53883, 38.878 ], [ 22.52508, 38.88544 ], [ 22.52508, 38.85814 ], [ 22.57293, 38.86433 ], [ 22.57293, 38.85814 ], [ 22.55388, 38.84809 ], [ 22.56332, 38.83625 ], [ 22.58277, 38.83198 ], [ 22.59344, 38.84447 ], [ 22.60027, 38.84447 ], [ 22.59344, 38.83023 ], [ 22.60816, 38.83076 ], [ 22.63266, 38.83515 ], [ 22.64112, 38.83023 ], [ 22.69028, 38.85 ], [ 22.70265, 38.85065 ], [ 22.72682, 38.81965 ], [ 22.74806, 38.79922 ], [ 22.75896, 38.79409 ], [ 22.76954, 38.78482 ], [ 22.77833, 38.78172 ], [ 22.81593, 38.78925 ], [ 22.82927, 38.78608 ], [ 22.84555, 38.77802 ], [ 22.85987, 38.76704 ], [ 22.8672, 38.75507 ], [ 22.88754, 38.77114 ], [ 22.8982, 38.7753 ], [ 22.91489, 38.77558 ], [ 22.92563, 38.77171 ], [ 22.94532, 38.75812 ], [ 22.96022, 38.75507 ], [ 23.01629, 38.75446 ], [ 23.042, 38.74673 ], [ 23.05942, 38.72773 ], [ 23.09051, 38.64912 ], [ 23.1045, 38.63841 ], [ 23.12355, 38.63691 ], [ 23.13331, 38.63972 ], [ 23.14519, 38.64899 ], [ 23.15642, 38.65347 ], [ 23.16896, 38.65229 ], [ 23.18247, 38.65375 ], [ 23.19606, 38.66633 ], [ 23.17677, 38.67658 ], [ 23.16814, 38.67939 ], [ 23.18678, 38.68598 ], [ 23.20493, 38.68268 ], [ 23.23764, 38.66633 ], [ 23.25375, 38.66181 ], [ 23.28696, 38.65815 ], [ 23.30592, 38.65266 ], [ 23.32097, 38.64326 ], [ 23.33123, 38.63028 ], [ 23.3357, 38.6164 ], [ 23.33326, 38.60423 ], [ 23.32114, 38.59443 ], [ 23.30649, 38.58885 ], [ 23.2933, 38.57909 ], [ 23.28541, 38.55646 ], [ 23.29542, 38.5681 ], [ 23.30738, 38.56855 ], [ 23.31959, 38.562 ], [ 23.34059, 38.54556 ], [ 23.36744, 38.54047 ], [ 23.3816, 38.53535 ], [ 23.3816, 38.52855 ], [ 23.37281, 38.52595 ], [ 23.34986, 38.52558 ], [ 23.3401, 38.52237 ], [ 23.3318, 38.51488 ], [ 23.32927, 38.50837 ], [ 23.33497, 38.50361 ], [ 23.3506, 38.50186 ], [ 23.41847, 38.50434 ], [ 23.51938, 38.49067 ], [ 23.53191, 38.49811 ], [ 23.54298, 38.5117 ], [ 23.56723, 38.50113 ], [ 23.60133, 38.47394 ], [ 23.5735, 38.46088 ], [ 23.5735, 38.45344 ], [ 23.58595, 38.45116 ], [ 23.5962, 38.44676 ], [ 23.60011, 38.44062 ], [ 23.594, 38.43293 ], [ 23.594, 38.42609 ], [ 23.62501, 38.41401 ], [ 23.67286, 38.35643 ], [ 23.70997, 38.33674 ], [ 23.72486, 38.33613 ], [ 23.78199, 38.34357 ], [ 23.80502, 38.33251 ], [ 23.81617, 38.33051 ], [ 23.91245, 38.29824 ], [ 23.93287, 38.2958 ], [ 23.95102, 38.29092 ], [ 23.96697, 38.27928 ], [ 23.99122, 38.25422 ], [ 24.03858, 38.22394 ], [ 24.0464, 38.21695 ], [ 24.05063, 38.21068 ], [ 24.06902, 38.20474 ], [ 24.07309, 38.19648 ], [ 24.06804, 38.18089 ], [ 24.06951, 38.17353 ], [ 24.08058, 38.166 ], [ 24.07, 38.16279 ], [ 24.06414, 38.1551 ], [ 24.05942, 38.13129 ], [ 24.05323, 38.14525 ], [ 24.03777, 38.14374 ], [ 23.98902, 38.12263 ], [ 23.99, 38.10212 ], [ 24.00489, 38.05927 ], [ 24.00913, 38.04059 ], [ 24.01857, 38.02668 ], [ 24.02817, 38.01618 ], [ 24.03273, 38.00776 ], [ 24.03004, 37.99844 ], [ 24.01173, 37.96686 ], [ 24.01189, 37.95832 ], [ 24.01588, 37.93745 ], [ 24.01173, 37.92524 ], [ 24.0228, 37.92573 ], [ 24.03443, 37.92292 ], [ 24.0433, 37.91645 ], [ 24.0464, 37.90599 ], [ 24.04225, 37.9007 ], [ 24.01173, 37.89175 ], [ 24.01889, 37.88516 ], [ 24.02784, 37.88032 ], [ 24.03891, 37.87788 ], [ 24.05323, 37.87808 ], [ 24.0464, 37.87059 ], [ 24.06691, 37.86441 ], [ 24.0608, 37.85562 ], [ 24.05934, 37.84854 ], [ 24.06178, 37.84252 ], [ 24.06691, 37.8371 ], [ 24.05763, 37.83218 ], [ 24.05323, 37.82282 ], [ 24.077, 37.8111 ], [ 24.08465, 37.80174 ], [ 24.08741, 37.78522 ], [ 24.08619, 37.76374 ], [ 24.08188, 37.75251 ], [ 24.05942, 37.73347 ], [ 24.07309, 37.72724 ], [ 24.07309, 37.71979 ], [ 24.05942, 37.71979 ], [ 24.05942, 37.71357 ], [ 24.06577, 37.7128 ], [ 24.06691, 37.69929 ], [ 24.06528, 37.70482 ], [ 24.06398, 37.70502 ], [ 24.05942, 37.69929 ], [ 24.07211, 37.68952 ], [ 24.06373, 37.67845 ], [ 24.0464, 37.66584 ], [ 24.03273, 37.65152 ], [ 24.02133, 37.65778 ], [ 23.98308, 37.67031 ], [ 23.9673, 37.67259 ], [ 23.94972, 37.67744 ], [ 23.94304, 37.68993 ], [ 23.94337, 37.72724 ], [ 23.93653, 37.72724 ], [ 23.9227, 37.72118 ], [ 23.91334, 37.73969 ], [ 23.90252, 37.78189 ], [ 23.88885, 37.7744 ], [ 23.8816, 37.79108 ], [ 23.86557, 37.80768 ], [ 23.8475, 37.8181 ], [ 23.83351, 37.81599 ], [ 23.82211, 37.82416 ], [ 23.81918, 37.82966 ], [ 23.813, 37.82966 ], [ 23.8073, 37.80858 ], [ 23.79721, 37.8085 ], [ 23.78663, 37.81216 ], [ 23.77898, 37.80231 ], [ 23.77662, 37.81428 ], [ 23.77361, 37.81688 ], [ 23.7645, 37.81599 ], [ 23.77084, 37.82831 ], [ 23.76645, 37.83893 ], [ 23.7448, 37.85761 ], [ 23.7422, 37.87665 ], [ 23.70053, 37.9252 ], [ 23.69703, 37.93952 ], [ 23.68019, 37.94587 ], [ 23.66334, 37.94294 ], [ 23.64601, 37.93667 ], [ 23.6281, 37.93268 ], [ 23.6281, 37.93952 ], [ 23.63771, 37.94294 ], [ 23.6408, 37.94579 ], [ 23.64177, 37.95254 ], [ 23.62664, 37.9475 ], [ 23.61801, 37.95327 ], [ 23.61036, 37.96214 ], [ 23.59767, 37.96686 ], [ 23.57106, 37.9687 ], [ 23.5608, 37.97281 ], [ 23.55299, 37.98045 ], [ 23.58888, 38.00633 ], [ 23.59791, 38.02114 ], [ 23.59059, 38.0388 ], [ 23.58131, 38.04629 ], [ 23.57455, 38.04678 ], [ 23.55983, 38.04255 ], [ 23.52182, 38.04255 ], [ 23.51149, 38.04043 ], [ 23.49985, 38.03099 ], [ 23.49464, 38.02888 ], [ 23.47088, 38.02778 ], [ 23.44996, 38.02143 ], [ 23.41188, 37.99437 ], [ 23.39527, 37.98794 ], [ 23.42945, 37.98045 ], [ 23.40895, 37.97431 ], [ 23.32984, 37.98045 ], [ 23.22682, 37.97362 ], [ 23.18922, 37.95881 ], [ 23.14234, 37.93008 ], [ 23.09409, 37.91104 ], [ 23.05201, 37.92524 ], [ 23.04274, 37.92194 ], [ 23.01515, 37.92524 ], [ 23.01149, 37.91999 ], [ 23.01026, 37.89696 ], [ 23.00148, 37.89175 ], [ 22.99513, 37.88215 ], [ 22.99952, 37.8627 ], [ 23.01254, 37.84756 ], [ 23.03224, 37.85078 ], [ 23.04965, 37.84357 ], [ 23.0735, 37.84113 ], [ 23.09718, 37.84357 ], [ 23.11411, 37.85078 ], [ 23.14625, 37.82583 ], [ 23.16383, 37.81525 ], [ 23.18238, 37.80915 ], [ 23.17799, 37.7993 ], [ 23.17644, 37.78998 ], [ 23.17799, 37.78156 ], [ 23.18238, 37.7744 ], [ 23.16871, 37.77237 ], [ 23.1504, 37.76337 ], [ 23.12818, 37.76048 ], [ 23.12501, 37.75727 ], [ 23.12094, 37.74091 ], [ 23.14584, 37.72582 ], [ 23.15935, 37.72077 ], [ 23.17555, 37.71979 ], [ 23.16627, 37.69701 ], [ 23.16383, 37.68159 ], [ 23.16725, 37.66645 ], [ 23.17555, 37.64468 ], [ 23.16188, 37.64468 ], [ 23.16456, 37.62303 ], [ 23.16863, 37.61416 ], [ 23.19011, 37.60733 ], [ 23.23024, 37.58259 ], [ 23.23764, 37.59003 ], [ 23.27467, 37.56122 ], [ 23.29225, 37.55589 ], [ 23.31235, 37.54255 ], [ 23.32301, 37.53742 ], [ 23.33668, 37.53547 ], [ 23.36036, 37.54767 ], [ 23.35914, 37.57429 ], [ 23.34059, 37.60029 ], [ 23.31219, 37.61054 ], [ 23.31219, 37.61738 ], [ 23.32911, 37.62824 ], [ 23.34783, 37.63443 ], [ 23.39869, 37.63788 ], [ 23.40903, 37.62592 ], [ 23.40431, 37.59927 ], [ 23.3908, 37.57136 ], [ 23.37428, 37.55589 ], [ 23.38429, 37.54743 ], [ 23.39503, 37.54141 ], [ 23.4074, 37.5375 ], [ 23.42205, 37.53547 ], [ 23.42205, 37.52802 ], [ 23.39527, 37.5218 ], [ 23.39527, 37.51496 ], [ 23.40211, 37.51496 ], [ 23.41066, 37.51191 ], [ 23.43629, 37.50812 ], [ 23.45883, 37.49616 ], [ 23.47918, 37.49067 ], [ 23.52565, 37.4597 ], [ 23.51889, 37.45303 ], [ 23.52565, 37.44603 ], [ 23.52565, 37.4392 ], [ 23.50538, 37.43049 ], [ 23.44654, 37.41462 ], [ 23.32325, 37.40974 ], [ 23.30592, 37.41193 ], [ 23.31219, 37.39826 ], [ 23.27605, 37.40225 ], [ 23.26271, 37.40103 ], [ 23.26441, 37.39081 ], [ 23.23024, 37.38459 ], [ 23.22999, 37.37495 ], [ 23.23707, 37.37031 ], [ 23.24741, 37.36945 ], [ 23.25758, 37.37092 ], [ 23.25131, 37.36351 ], [ 23.25131, 37.35733 ], [ 23.25896, 37.35639 ], [ 23.27801, 37.34984 ], [ 23.26238, 37.34398 ], [ 23.24399, 37.34243 ], [ 23.20672, 37.3437 ], [ 23.18605, 37.34064 ], [ 23.18539, 37.33218 ], [ 23.20362, 37.30268 ], [ 23.18287, 37.29926 ], [ 23.16863, 37.29951 ], [ 23.14145, 37.30952 ], [ 23.14145, 37.31635 ], [ 23.16188, 37.31635 ], [ 23.16188, 37.32315 ], [ 23.15016, 37.32575 ], [ 23.13624, 37.32372 ], [ 23.12338, 37.32477 ], [ 23.11411, 37.33617 ], [ 23.13461, 37.32933 ], [ 23.12973, 37.33877 ], [ 23.12241, 37.34569 ], [ 23.1006, 37.35733 ], [ 23.09278, 37.35078 ], [ 23.08277, 37.35053 ], [ 23.07309, 37.35521 ], [ 23.07008, 37.3889 ], [ 23.0726, 37.40111 ], [ 23.09498, 37.38955 ], [ 23.10524, 37.39692 ], [ 23.11256, 37.41087 ], [ 23.11411, 37.4256 ], [ 23.14145, 37.41193 ], [ 23.14145, 37.41816 ], [ 23.13657, 37.42731 ], [ 23.13461, 37.44261 ], [ 23.13201, 37.44864 ], [ 23.11793, 37.45283 ], [ 23.09718, 37.46223 ], [ 23.06202, 37.45498 ], [ 23.04591, 37.4597 ], [ 23.05942, 37.46654 ], [ 23.04591, 37.48701 ], [ 23.02101, 37.47529 ], [ 23.01124, 37.46906 ], [ 23.00489, 37.4597 ], [ 22.9909, 37.49575 ], [ 22.98072, 37.50878 ], [ 22.96388, 37.5218 ], [ 22.94288, 37.5218 ], [ 22.93914, 37.52497 ], [ 22.93605, 37.53547 ], [ 22.92156, 37.54035 ], [ 22.90187, 37.54165 ], [ 22.91432, 37.5388 ], [ 22.91847, 37.53559 ], [ 22.92237, 37.52802 ], [ 22.90235, 37.53486 ], [ 22.88502, 37.53315 ], [ 22.8694, 37.52562 ], [ 22.85401, 37.51496 ], [ 22.84718, 37.52098 ], [ 22.81935, 37.53547 ], [ 22.82618, 37.54906 ], [ 22.81349, 37.55341 ], [ 22.80201, 37.56086 ], [ 22.79591, 37.56916 ], [ 22.79884, 37.5764 ], [ 22.78834, 37.58877 ], [ 22.77833, 37.59687 ], [ 22.75652, 37.58967 ], [ 22.73845, 37.58088 ], [ 22.72641, 37.56635 ], [ 22.72316, 37.54165 ], [ 22.72535, 37.53657 ], [ 22.73463, 37.52456 ], [ 22.73666, 37.51838 ], [ 22.73072, 37.50023 ], [ 22.73048, 37.49445 ], [ 22.73471, 37.48334 ], [ 22.75034, 37.46654 ], [ 22.75148, 37.46162 ], [ 22.75034, 37.44261 ], [ 22.76482, 37.43179 ], [ 22.76417, 37.42154 ], [ 22.75733, 37.40827 ], [ 22.75799, 37.39826 ], [ 22.81039, 37.34837 ], [ 22.81935, 37.3437 ], [ 22.81251, 37.32933 ], [ 22.82618, 37.32933 ], [ 22.82618, 37.32315 ], [ 22.81935, 37.32315 ], [ 22.81935, 37.31635 ], [ 22.82984, 37.30829 ], [ 22.85377, 37.27387 ], [ 22.86085, 37.25568 ], [ 22.89503, 37.20649 ], [ 22.90659, 37.19392 ], [ 22.91163, 37.18342 ], [ 22.9004, 37.17292 ], [ 22.89723, 37.15986 ], [ 22.89503, 37.13386 ], [ 22.90317, 37.12128 ], [ 22.92205, 37.11799 ], [ 22.94272, 37.1201 ], [ 22.95639, 37.12397 ], [ 22.95704, 37.11933 ], [ 22.96388, 37.1103 ], [ 22.9568, 37.10676 ], [ 22.96388, 37.10342 ], [ 22.95639, 37.09593 ], [ 22.97348, 37.09097 ], [ 22.9817, 37.08271 ], [ 22.97918, 37.07783 ], [ 22.96388, 37.08295 ], [ 22.97291, 37.06513 ], [ 22.99985, 37.03327 ], [ 22.99806, 37.02147 ], [ 23.00611, 37.00458 ], [ 23.01173, 36.98676 ], [ 22.99073, 36.98676 ], [ 23.00489, 36.96686 ], [ 23.00758, 36.97085 ], [ 23.01173, 36.97309 ], [ 23.01637, 36.95527 ], [ 23.01531, 36.94709 ], [ 23.01173, 36.93891 ], [ 23.02174, 36.92573 ], [ 23.04168, 36.88544 ], [ 23.049, 36.8769 ], [ 23.04591, 36.86909 ], [ 23.05926, 36.85151 ], [ 23.08676, 36.82909 ], [ 23.09327, 36.81826 ], [ 23.09555, 36.80703 ], [ 23.09181, 36.79833 ], [ 23.08058, 36.79499 ], [ 23.08058, 36.78876 ], [ 23.09881, 36.78693 ], [ 23.11411, 36.78132 ], [ 23.10987, 36.77367 ], [ 23.0984, 36.76667 ], [ 23.09441, 36.76081 ], [ 23.09295, 36.75519 ], [ 23.09441, 36.74372 ], [ 23.08863, 36.7329 ], [ 23.07586, 36.73383 ], [ 23.0617, 36.74055 ], [ 23.05201, 36.74714 ], [ 23.04347, 36.73603 ], [ 23.03094, 36.72557 ], [ 23.02565, 36.71564 ], [ 23.03907, 36.7062 ], [ 23.03224, 36.69257 ], [ 23.05942, 36.69257 ], [ 23.03443, 36.67487 ], [ 23.03566, 36.64907 ], [ 23.05047, 36.62246 ], [ 23.07016, 36.59699 ], [ 23.08058, 36.57929 ], [ 23.08481, 36.57616 ], [ 23.10467, 36.56932 ], [ 23.11598, 36.56224 ], [ 23.13461, 36.55537 ], [ 23.14536, 36.54194 ], [ 23.15504, 36.54108 ], [ 23.14145, 36.53425 ], [ 23.14145, 36.52802 ], [ 23.14747, 36.52237 ], [ 23.1482, 36.51716 ], [ 23.14389, 36.51227 ], [ 23.13461, 36.50755 ], [ 23.15187, 36.48729 ], [ 23.18181, 36.47232 ], [ 23.20362, 36.45612 ], [ 23.20092, 36.44769 ], [ 23.09083, 36.44769 ], [ 23.07838, 36.46528 ], [ 23.06625, 36.47346 ], [ 23.06625, 36.47964 ], [ 23.07211, 36.49311 ], [ 23.06511, 36.5091 ], [ 23.05104, 36.52245 ], [ 23.03566, 36.52802 ], [ 22.99269, 36.52033 ], [ 22.97242, 36.52021 ], [ 22.96388, 36.53115 ], [ 22.95924, 36.54743 ], [ 22.93678, 36.58617 ], [ 22.92921, 36.59634 ], [ 22.91782, 36.60517 ], [ 22.87469, 36.63052 ], [ 22.88893, 36.64248 ], [ 22.88429, 36.65424 ], [ 22.84254, 36.685 ], [ 22.83717, 36.68651 ], [ 22.83318, 36.6789 ], [ 22.81935, 36.66523 ], [ 22.81495, 36.67056 ], [ 22.81373, 36.67939 ], [ 22.81935, 36.70279 ], [ 22.81715, 36.71796 ], [ 22.80787, 36.73957 ], [ 22.80079, 36.77578 ], [ 22.78688, 36.79344 ], [ 22.76515, 36.80419 ], [ 22.73666, 36.80858 ], [ 22.68556, 36.80948 ], [ 22.62257, 36.80345 ], [ 22.5774, 36.78303 ], [ 22.57911, 36.74038 ], [ 22.54615, 36.72142 ], [ 22.53346, 36.70722 ], [ 22.52508, 36.68513 ], [ 22.54029, 36.68521 ], [ 22.54982, 36.67829 ], [ 22.55372, 36.66621 ], [ 22.5525, 36.65095 ], [ 22.54566, 36.65095 ], [ 22.54005, 36.66527 ], [ 22.53386, 36.67056 ], [ 22.52508, 36.67145 ], [ 22.51677, 36.66616 ], [ 22.5114, 36.65689 ], [ 22.51002, 36.64802 ], [ 22.53102, 36.6328 ], [ 22.52605, 36.61237 ], [ 22.51271, 36.60277 ], [ 22.50465, 36.62425 ], [ 22.49, 36.61701 ], [ 22.48406, 36.60663 ], [ 22.48357, 36.54792 ], [ 22.48658, 36.52509 ], [ 22.49269, 36.50629 ], [ 22.51149, 36.46662 ], [ 22.50733, 36.46109 ], [ 22.51149, 36.45234 ], [ 22.50284, 36.44769 ], [ 22.47154, 36.44769 ], [ 22.4699, 36.45234 ], [ 22.45533, 36.46223 ], [ 22.42042, 36.47354 ], [ 22.40838, 36.48713 ], [ 22.40162, 36.48713 ], [ 22.39137, 36.4785 ], [ 22.38136, 36.48045 ], [ 22.36402, 36.49702 ], [ 22.3545, 36.51191 ], [ 22.35532, 36.52294 ], [ 22.36744, 36.54792 ], [ 22.38356, 36.54418 ], [ 22.38819, 36.55606 ], [ 22.38404, 36.5725 ], [ 22.37371, 36.58271 ], [ 22.37867, 36.58759 ], [ 22.38795, 36.60253 ], [ 22.36744, 36.60253 ], [ 22.36931, 36.61538 ], [ 22.36793, 36.63085 ], [ 22.37135, 36.64273 ], [ 22.38795, 36.64411 ], [ 22.38795, 36.65095 ], [ 22.36842, 36.65648 ], [ 22.37062, 36.67357 ], [ 22.38795, 36.7062 ], [ 22.35857, 36.70209 ], [ 22.33937, 36.72647 ], [ 22.32374, 36.75788 ], [ 22.30543, 36.77509 ], [ 22.30698, 36.79458 ], [ 22.29168, 36.82014 ], [ 22.22153, 36.89753 ], [ 22.20021, 36.9064 ], [ 22.17506, 36.89118 ], [ 22.14869, 36.90717 ], [ 22.13787, 36.91714 ], [ 22.13347, 36.93211 ], [ 22.13575, 36.93163 ], [ 22.14064, 36.93716 ], [ 22.14536, 36.94611 ], [ 22.14772, 36.95604 ], [ 22.14877, 36.96743 ], [ 22.15358, 36.98688 ], [ 22.15512, 37.01411 ], [ 22.15317, 37.02119 ], [ 22.08562, 37.03339 ], [ 22.04811, 37.03514 ], [ 22.03004, 37.03095 ], [ 21.9922, 37.01211 ], [ 21.9546, 37.00365 ], [ 21.94313, 36.99331 ], [ 21.93735, 36.97997 ], [ 21.92726, 36.88447 ], [ 21.92221, 36.8723 ], [ 21.92172, 36.86323 ], [ 21.92595, 36.85171 ], [ 21.93214, 36.843 ], [ 21.93491, 36.83421 ], [ 21.92856, 36.82225 ], [ 21.94565, 36.80903 ], [ 21.95623, 36.80345 ], [ 21.97023, 36.80174 ], [ 21.97023, 36.79499 ], [ 21.9568, 36.79413 ], [ 21.94508, 36.78994 ], [ 21.93881, 36.78319 ], [ 21.94223, 36.77509 ], [ 21.93588, 36.76602 ], [ 21.88258, 36.72655 ], [ 21.87403, 36.72671 ], [ 21.85678, 36.75507 ], [ 21.85353, 36.75739 ], [ 21.82276, 36.80858 ], [ 21.80486, 36.8076 ], [ 21.78972, 36.80475 ], [ 21.76417, 36.79499 ], [ 21.75229, 36.805 ], [ 21.72877, 36.81265 ], [ 21.7225, 36.82225 ], [ 21.71632, 36.82225 ], [ 21.70737, 36.81802 ], [ 21.70191, 36.82563 ], [ 21.69663, 36.83845 ], [ 21.68849, 36.84955 ], [ 21.69239, 36.85904 ], [ 21.68849, 36.89118 ], [ 21.69158, 36.9003 ], [ 21.70476, 36.91714 ], [ 21.70948, 36.92593 ], [ 21.70997, 36.94269 ], [ 21.70265, 36.95726 ], [ 21.68816, 36.96454 ], [ 21.66798, 36.95942 ], [ 21.67742, 36.96328 ], [ 21.68043, 36.96646 ], [ 21.68165, 36.97309 ], [ 21.6727, 36.97358 ], [ 21.66774, 36.97093 ], [ 21.66179, 36.95942 ], [ 21.6548, 36.9947 ], [ 21.62924, 37.0209 ], [ 21.59929, 37.04572 ], [ 21.57862, 37.07673 ], [ 21.56967, 37.1162 ], [ 21.56756, 37.15632 ], [ 21.57439, 37.19237 ], [ 21.59213, 37.22016 ], [ 21.65496, 37.26073 ], [ 21.6823, 37.28392 ], [ 21.69581, 37.31635 ], [ 21.69142, 37.35663 ], [ 21.67482, 37.39598 ], [ 21.60711, 37.4995 ], [ 21.56902, 37.54536 ], [ 21.54998, 37.56147 ], [ 21.46363, 37.61026 ], [ 21.44304, 37.6186 ], [ 21.43181, 37.62763 ], [ 21.41236, 37.64802 ], [ 21.40219, 37.65542 ], [ 21.34327, 37.66934 ], [ 21.32374, 37.66494 ], [ 21.31853, 37.63788 ], [ 21.31227, 37.63788 ], [ 21.30828, 37.66625 ], [ 21.29868, 37.67259 ], [ 21.31105, 37.6931 ], [ 21.31471, 37.70954 ], [ 21.31186, 37.7263 ], [ 21.29526, 37.77167 ], [ 21.28492, 37.7851 ], [ 21.27101, 37.7934 ], [ 21.22731, 37.81192 ], [ 21.12208, 37.83739 ], [ 21.11305, 37.84333 ], [ 21.1076, 37.85545 ], [ 21.11158, 37.87043 ], [ 21.10621, 37.87808 ], [ 21.13356, 37.94636 ], [ 21.14039, 37.94636 ], [ 21.1644, 37.92963 ], [ 21.20777, 37.94603 ], [ 21.25164, 37.97622 ], [ 21.27752, 38.00096 ], [ 21.29151, 37.99722 ], [ 21.30348, 38.00332 ], [ 21.32594, 38.02143 ], [ 21.32594, 38.02888 ], [ 21.31853, 38.0351 ], [ 21.29908, 38.02652 ], [ 21.28435, 38.01529 ], [ 21.32936, 38.06989 ], [ 21.33131, 38.0764 ], [ 21.36704, 38.12108 ], [ 21.37143, 38.1315 ], [ 21.37371, 38.14448 ], [ 21.37574, 38.20429 ], [ 21.37428, 38.22065 ], [ 21.38494, 38.21113 ], [ 21.39829, 38.19294 ], [ 21.40854, 38.18594 ], [ 21.40528, 38.20746 ], [ 21.40089, 38.21479 ], [ 21.4061, 38.2084 ], [ 21.42066, 38.20234 ], [ 21.45973, 38.20018 ], [ 21.47397, 38.19603 ], [ 21.52394, 38.166 ], [ 21.60304, 38.1518 ], [ 21.62233, 38.15477 ], [ 21.64234, 38.1621 ], [ 21.67482, 38.17967 ], [ 21.70135, 38.20527 ], [ 21.74155, 38.26972 ], [ 21.76417, 38.2958 ], [ 21.84051, 38.33364 ], [ 21.84946, 38.34129 ], [ 21.91554, 38.33051 ], [ 21.93702, 38.33063 ], [ 21.94654, 38.33234 ], [ 21.9559, 38.33674 ], [ 21.97804, 38.32355 ], [ 21.99252, 38.31875 ], [ 22.00782, 38.31688 ], [ 22.02036, 38.31322 ], [ 22.02662, 38.30435 ], [ 22.03077, 38.29295 ], [ 22.03785, 38.28213 ], [ 22.04884, 38.27481 ], [ 22.07862, 38.26341 ], [ 22.08937, 38.26166 ], [ 22.11362, 38.26781 ], [ 22.12892, 38.25629 ], [ 22.13722, 38.25422 ], [ 22.14332, 38.24909 ], [ 22.15406, 38.22346 ], [ 22.16139, 38.2132 ], [ 22.16969, 38.2097 ], [ 22.20607, 38.20018 ], [ 22.21852, 38.18818 ], [ 22.22657, 38.18594 ], [ 22.25758, 38.18594 ], [ 22.30079, 38.17748 ], [ 22.31284, 38.17227 ], [ 22.33123, 38.1789 ], [ 22.34685, 38.1708 ], [ 22.36345, 38.15827 ], [ 22.39422, 38.14842 ], [ 22.40431, 38.14191 ], [ 22.41481, 38.13788 ], [ 22.43279, 38.14326 ], [ 22.51149, 38.1293 ], [ 22.62062, 38.08348 ], [ 22.68043, 38.0666 ], [ 22.68898, 38.05927 ], [ 22.6985, 38.05671 ], [ 22.77833, 38.00096 ], [ 22.7964, 37.97679 ], [ 22.80226, 37.97362 ], [ 22.8213, 37.96918 ], [ 22.85239, 37.9475 ], [ 22.8672, 37.93952 ], [ 22.88266, 37.93757 ], [ 22.8982, 37.93976 ], [ 22.92237, 37.94636 ], [ 22.9463, 37.94623 ], [ 22.95297, 37.94941 ], [ 22.97316, 37.97362 ], [ 22.97535, 37.97899 ], [ 22.96551, 37.99071 ], [ 22.95094, 38.00243 ], [ 22.93946, 38.00776 ], [ 22.92384, 38.01179 ], [ 22.89918, 38.02778 ], [ 22.88087, 38.02888 ], [ 22.88746, 38.03364 ], [ 22.85401, 38.0351 ], [ 22.8755, 38.0493 ], [ 22.88543, 38.05427 ], [ 22.91163, 38.06013 ], [ 22.93377, 38.07827 ], [ 22.94288, 38.08348 ], [ 22.96974, 38.08198 ], [ 23.01905, 38.06525 ], [ 23.03907, 38.06989 ], [ 23.06861, 38.05891 ], [ 23.10092, 38.0624 ], [ 23.17286, 38.07949 ], [ 23.18971, 38.09439 ], [ 23.20672, 38.09781 ], [ 23.21664, 38.10334 ], [ 23.2103, 38.11538 ], [ 23.19418, 38.12694 ], [ 23.17555, 38.13129 ], [ 23.17555, 38.14496 ], [ 23.2234, 38.1518 ], [ 23.2234, 38.15925 ], [ 23.14405, 38.16743 ], [ 23.12843, 38.17227 ], [ 23.14894, 38.18594 ], [ 23.12273, 38.20808 ], [ 23.10963, 38.21011 ], [ 23.07748, 38.18578 ], [ 23.06666, 38.18317 ], [ 23.03224, 38.18594 ], [ 23.03224, 38.19278 ], [ 23.05201, 38.19278 ], [ 23.03883, 38.20832 ], [ 23.02508, 38.21662 ], [ 23.01043, 38.22004 ], [ 22.95191, 38.22529 ], [ 22.93377, 38.22207 ], [ 22.92237, 38.20702 ], [ 22.93588, 38.2106 ], [ 22.95053, 38.20978 ], [ 22.96306, 38.20405 ], [ 22.96949, 38.19278 ], [ 22.95232, 38.1931 ], [ 22.92254, 38.19746 ], [ 22.9087, 38.19278 ], [ 22.89503, 38.24116 ], [ 22.88819, 38.24116 ], [ 22.88087, 38.22696 ], [ 22.87469, 38.24116 ], [ 22.85646, 38.2364 ], [ 22.82, 38.23298 ], [ 22.80567, 38.22696 ], [ 22.76482, 38.24799 ], [ 22.7732, 38.25829 ], [ 22.79127, 38.27045 ], [ 22.79884, 38.28213 ], [ 22.78028, 38.28856 ], [ 22.74236, 38.29706 ], [ 22.71941, 38.31029 ], [ 22.69646, 38.31688 ], [ 22.6753, 38.34357 ], [ 22.68442, 38.36107 ], [ 22.67018, 38.38154 ], [ 22.64649, 38.38996 ], [ 22.6268, 38.37153 ], [ 22.64487, 38.36961 ], [ 22.64617, 38.3618 ], [ 22.63673, 38.35627 ], [ 22.61232, 38.36384 ], [ 22.60092, 38.35566 ], [ 22.58717, 38.33674 ], [ 22.58717, 38.33051 ], [ 22.59913, 38.32461 ], [ 22.60646, 38.32307 ], [ 22.60646, 38.31688 ], [ 22.59913, 38.31281 ], [ 22.59816, 38.31074 ], [ 22.60027, 38.30264 ], [ 22.58863, 38.29304 ], [ 22.57643, 38.29019 ], [ 22.56251, 38.29352 ], [ 22.54566, 38.30264 ], [ 22.54526, 38.30557 ], [ 22.53395, 38.32266 ], [ 22.53199, 38.32307 ], [ 22.52622, 38.33173 ], [ 22.52833, 38.33393 ], [ 22.53883, 38.33674 ], [ 22.52516, 38.35883 ], [ 22.47731, 38.40567 ], [ 22.46844, 38.42113 ], [ 22.46306, 38.42609 ], [ 22.44825, 38.43049 ], [ 22.40162, 38.45344 ], [ 22.40838, 38.41559 ], [ 22.38111, 38.39883 ], [ 22.37371, 38.39204 ], [ 22.386, 38.38019 ], [ 22.38998, 38.38052 ], [ 22.39479, 38.38516 ], [ 22.39861, 38.37592 ], [ 22.39625, 38.36835 ], [ 22.38982, 38.36225 ], [ 22.38111, 38.35786 ], [ 22.38795, 38.35102 ], [ 22.38233, 38.34268 ], [ 22.36752, 38.34186 ], [ 22.3484, 38.34736 ], [ 22.32252, 38.35102 ], [ 22.28492, 38.34732 ], [ 22.27931, 38.35309 ], [ 22.26645, 38.35855 ], [ 22.25261, 38.36099 ], [ 22.24334, 38.35786 ], [ 22.22486, 38.36005 ], [ 22.20932, 38.35293 ], [ 22.19597, 38.33954 ], [ 22.18922, 38.32307 ], [ 22.18092, 38.32998 ], [ 22.1753, 38.34333 ], [ 22.16879, 38.35102 ], [ 22.15952, 38.35395 ], [ 22.15073, 38.35277 ], [ 22.14576, 38.35399 ], [ 22.14772, 38.36408 ], [ 22.13258, 38.37275 ], [ 22.10076, 38.38032 ], [ 22.04908, 38.3985 ], [ 22.02955, 38.39924 ], [ 22.01124, 38.39204 ], [ 21.98764, 38.41059 ], [ 21.95786, 38.41169 ], [ 21.92897, 38.4029 ], [ 21.88852, 38.37979 ], [ 21.87924, 38.378 ], [ 21.86411, 38.37767 ], [ 21.85613, 38.38093 ], [ 21.8462, 38.39533 ], [ 21.84051, 38.39887 ], [ 21.83123, 38.39667 ], [ 21.78224, 38.36367 ], [ 21.77459, 38.35261 ], [ 21.77166, 38.33364 ], [ 21.76254, 38.32836 ], [ 21.74301, 38.33784 ], [ 21.71632, 38.35786 ], [ 21.65797, 38.35786 ], [ 21.64161, 38.35444 ], [ 21.62713, 38.34813 ], [ 21.61354, 38.34496 ], [ 21.59962, 38.35102 ], [ 21.53541, 38.31395 ], [ 21.52394, 38.2958 ], [ 21.51775, 38.2958 ], [ 21.50847, 38.30223 ], [ 21.47608, 38.30606 ], [ 21.46925, 38.31293 ], [ 21.4284, 38.33051 ], [ 21.44532, 38.33405 ], [ 21.46119, 38.32697 ], [ 21.47608, 38.31635 ], [ 21.48976, 38.30948 ], [ 21.48976, 38.31688 ], [ 21.48268, 38.32461 ], [ 21.48373, 38.32905 ], [ 21.48976, 38.33674 ], [ 21.47608, 38.34357 ], [ 21.47608, 38.35102 ], [ 21.48976, 38.35786 ], [ 21.46998, 38.35786 ], [ 21.47608, 38.37153 ], [ 21.45851, 38.36636 ], [ 21.45045, 38.36742 ], [ 21.44264, 38.37153 ], [ 21.43686, 38.36766 ], [ 21.42213, 38.36408 ], [ 21.42848, 38.38373 ], [ 21.41627, 38.39411 ], [ 21.39584, 38.39814 ], [ 21.37745, 38.39887 ], [ 21.36988, 38.40819 ], [ 21.36012, 38.46772 ], [ 21.33904, 38.48753 ], [ 21.32252, 38.49628 ], [ 21.3086, 38.49437 ], [ 21.31202, 38.48656 ], [ 21.35328, 38.43293 ], [ 21.33904, 38.43293 ], [ 21.34116, 38.42927 ], [ 21.34645, 38.42609 ], [ 21.3366, 38.3957 ], [ 21.32936, 38.39204 ], [ 21.3191, 38.3902 ], [ 21.29119, 38.37767 ], [ 21.29363, 38.37368 ], [ 21.29868, 38.37153 ], [ 21.29119, 38.36408 ], [ 21.27768, 38.37092 ], [ 21.26954, 38.36787 ], [ 21.26637, 38.3614 ], [ 21.26759, 38.35786 ], [ 21.27223, 38.35444 ], [ 21.2649, 38.34691 ], [ 21.23927, 38.33112 ], [ 21.23243, 38.32941 ], [ 21.21266, 38.33051 ], [ 21.2046, 38.33417 ], [ 21.19711, 38.34016 ], [ 21.18963, 38.34138 ], [ 21.18133, 38.33051 ], [ 21.19256, 38.32412 ], [ 21.19996, 38.32307 ], [ 21.18287, 38.31916 ], [ 21.17506, 38.3133 ], [ 21.17449, 38.30264 ], [ 21.15561, 38.3039 ], [ 21.14861, 38.31403 ], [ 21.14584, 38.32705 ], [ 21.14039, 38.33674 ], [ 21.12843, 38.34016 ], [ 21.09791, 38.34073 ], [ 21.08522, 38.34357 ], [ 21.10572, 38.35297 ], [ 21.10939, 38.36042 ], [ 21.10621, 38.37153 ], [ 21.09254, 38.36408 ], [ 21.10133, 38.37971 ], [ 21.10621, 38.38516 ], [ 21.10328, 38.37816 ], [ 21.11354, 38.37393 ], [ 21.12501, 38.37995 ], [ 21.13364, 38.38866 ], [ 21.14039, 38.39887 ], [ 21.12241, 38.41035 ], [ 21.11476, 38.40961 ], [ 21.10621, 38.39887 ], [ 21.09474, 38.40298 ], [ 21.08676, 38.41047 ], [ 21.0818, 38.42072 ], [ 21.07895, 38.43293 ], [ 21.08302, 38.43504 ], [ 21.08522, 38.44038 ], [ 21.09523, 38.43024 ], [ 21.10678, 38.42544 ], [ 21.11622, 38.42805 ], [ 21.11988, 38.44038 ], [ 21.10621, 38.43293 ], [ 21.11085, 38.44611 ], [ 21.10141, 38.46475 ], [ 21.10621, 38.47394 ], [ 21.10621, 38.48139 ], [ 21.09669, 38.48143 ], [ 21.07895, 38.48753 ], [ 21.09262, 38.4936 ], [ 21.09938, 38.49437 ], [ 21.08522, 38.50186 ], [ 21.09474, 38.51789 ], [ 21.09742, 38.52595 ], [ 21.09596, 38.53193 ], [ 21.08668, 38.53644 ], [ 21.07887, 38.53242 ], [ 21.07106, 38.52582 ], [ 21.06178, 38.52237 ], [ 21.04721, 38.51138 ], [ 21.03582, 38.5069 ], [ 21.03053, 38.51142 ], [ 21.02833, 38.52058 ], [ 21.01905, 38.53498 ], [ 21.01686, 38.54588 ], [ 21.02459, 38.58674 ], [ 21.02467, 38.60847 ], [ 21.00367, 38.62645 ], [ 20.98813, 38.66401 ], [ 20.97901, 38.67255 ], [ 20.94011, 38.67292 ], [ 20.92661, 38.67674 ], [ 20.9144, 38.68622 ], [ 20.9074, 38.69855 ], [ 20.88315, 38.77936 ], [ 20.87338, 38.79531 ], [ 20.85987, 38.80353 ], [ 20.84523, 38.79963 ], [ 20.83058, 38.78779 ], [ 20.81137, 38.76252 ], [ 20.80405, 38.77338 ], [ 20.79811, 38.77155 ], [ 20.79184, 38.76655 ], [ 20.78403, 38.76813 ], [ 20.77329, 38.76093 ], [ 20.7693, 38.76504 ], [ 20.76743, 38.77412 ], [ 20.76368, 38.78172 ], [ 20.72934, 38.80353 ], [ 20.72934, 38.80976 ], [ 20.73699, 38.82258 ], [ 20.74147, 38.84089 ], [ 20.74936, 38.85725 ], [ 20.76734, 38.86433 ], [ 20.8003, 38.86457 ], [ 20.80519, 38.86774 ], [ 20.80193, 38.87409 ], [ 20.7942, 38.87979 ], [ 20.7645, 38.89179 ], [ 20.75603, 38.90689 ], [ 20.75408, 38.92495 ], [ 20.7575, 38.94009 ], [ 20.76979, 38.95897 ], [ 20.77516, 38.95161 ], [ 20.78159, 38.935 ], [ 20.7977, 38.92642 ], [ 20.81707, 38.92137 ], [ 20.83595, 38.9289 ], [ 20.84978, 38.94367 ], [ 20.85987, 38.96052 ], [ 20.86671, 38.96052 ], [ 20.8711, 38.94725 ], [ 20.87013, 38.94343 ], [ 20.86671, 38.94009 ], [ 20.87159, 38.93635 ], [ 20.87224, 38.93281 ], [ 20.86671, 38.92642 ], [ 20.88697, 38.92617 ], [ 20.90382, 38.92805 ], [ 20.91578, 38.9361 ], [ 20.92066, 38.95433 ], [ 20.9275, 38.95433 ], [ 20.93719, 38.94404 ], [ 20.94728, 38.94359 ], [ 20.95948, 38.94672 ], [ 20.97535, 38.94684 ], [ 21.00945, 38.93423 ], [ 21.02735, 38.9326 ], [ 21.02996, 38.92621 ], [ 21.0267, 38.91218 ], [ 21.02556, 38.89802 ], [ 21.03395, 38.89167 ], [ 21.04754, 38.88898 ], [ 21.0608, 38.88223 ], [ 21.08522, 38.86433 ], [ 21.08644, 38.87336 ], [ 21.08888, 38.87849 ], [ 21.09938, 38.88544 ], [ 21.09938, 38.89167 ], [ 21.09164, 38.90453 ], [ 21.10231, 38.91083 ], [ 21.12086, 38.91022 ], [ 21.13697, 38.90253 ], [ 21.16041, 38.88068 ], [ 21.16082, 38.878 ], [ 21.17262, 38.87352 ], [ 21.17742, 38.87604 ], [ 21.18133, 38.88544 ], [ 21.17311, 38.89118 ], [ 21.16969, 38.89582 ], [ 21.16684, 38.91087 ], [ 21.15886, 38.91083 ], [ 21.15455, 38.9134 ], [ 21.14186, 38.93081 ], [ 21.14015, 38.94131 ], [ 21.14723, 38.95433 ], [ 21.14194, 38.96239 ], [ 21.14503, 38.97138 ], [ 21.1526, 38.97671 ], [ 21.16082, 38.97419 ], [ 21.15992, 38.99775 ], [ 21.13559, 39.02338 ], [ 21.08522, 39.06293 ], [ 21.07814, 39.05655 ], [ 21.07439, 39.05003 ], [ 21.07447, 39.04336 ], [ 21.07895, 39.03628 ], [ 21.06528, 39.04051 ], [ 21.05519, 39.0375 ], [ 21.03736, 39.02196 ], [ 21.05836, 39.00898 ], [ 21.00318, 39.01512 ], [ 21.00318, 39.02196 ], [ 20.9909, 39.02424 ], [ 20.96567, 39.03937 ], [ 20.95379, 39.03417 ], [ 20.94418, 39.03856 ], [ 20.93751, 39.04767 ], [ 20.93483, 39.05671 ], [ 20.93678, 39.05671 ], [ 20.93979, 39.06102 ], [ 20.9485, 39.06293 ], [ 20.9485, 39.06977 ], [ 20.94109, 39.06977 ], [ 20.93141, 39.06476 ], [ 20.92018, 39.06452 ], [ 20.90943, 39.06867 ], [ 20.90138, 39.07722 ], [ 20.89389, 39.07722 ], [ 20.88819, 39.06721 ], [ 20.87037, 39.05931 ], [ 20.86671, 39.05305 ], [ 20.87094, 39.04312 ], [ 20.88201, 39.04121 ], [ 20.88649, 39.03644 ], [ 20.8449, 39.03693 ], [ 20.85987, 39.04247 ], [ 20.85776, 39.05891 ], [ 20.85499, 39.0655 ], [ 20.8462, 39.06293 ], [ 20.8449, 39.07087 ], [ 20.84653, 39.07209 ], [ 20.8462, 39.07722 ], [ 20.83766, 39.07831 ], [ 20.83237, 39.07689 ], [ 20.82569, 39.06977 ], [ 20.83806, 39.09174 ], [ 20.83416, 39.10847 ], [ 20.82244, 39.11449 ], [ 20.81137, 39.10456 ], [ 20.80519, 39.1114 ], [ 20.80128, 39.10419 ], [ 20.79542, 39.09862 ], [ 20.77719, 39.09089 ], [ 20.77719, 39.08344 ], [ 20.79184, 39.0808 ], [ 20.78793, 39.07246 ], [ 20.78761, 39.06102 ], [ 20.78403, 39.04926 ], [ 20.7767, 39.04194 ], [ 20.76157, 39.03242 ], [ 20.7575, 39.02196 ], [ 20.74317, 39.02949 ], [ 20.74537, 39.01472 ], [ 20.7575, 39.01512 ], [ 20.80388, 38.9853 ], [ 20.8235, 38.97785 ], [ 20.8296, 38.97077 ], [ 20.8318, 38.96369 ], [ 20.82879, 38.96052 ], [ 20.82008, 38.96223 ], [ 20.80209, 38.97065 ], [ 20.77272, 38.97826 ], [ 20.76637, 38.97761 ], [ 20.7575, 38.97419 ], [ 20.75701, 38.96979 ], [ 20.74692, 38.95795 ], [ 20.73512, 38.9501 ], [ 20.72934, 38.95746 ], [ 20.72633, 38.96678 ], [ 20.71217, 38.97907 ], [ 20.70899, 38.98444 ], [ 20.70786, 38.99038 ], [ 20.70216, 38.99836 ], [ 20.70436, 39.00495 ], [ 20.71388, 39.01191 ], [ 20.71583, 39.01512 ], [ 20.70574, 39.04857 ], [ 20.68653, 39.07246 ], [ 20.66, 39.08999 ], [ 20.6277, 39.10456 ], [ 20.59588, 39.12385 ], [ 20.51783, 39.20075 ], [ 20.48829, 39.21662 ], [ 20.47885, 39.22517 ], [ 20.48243, 39.23428 ], [ 20.47739, 39.24339 ], [ 20.47511, 39.25507 ], [ 20.47641, 39.26659 ], [ 20.48243, 39.27521 ], [ 20.48243, 39.28266 ], [ 20.47039, 39.27847 ], [ 20.46022, 39.27729 ], [ 20.45281, 39.28046 ], [ 20.44825, 39.2895 ], [ 20.43344, 39.28286 ], [ 20.4192, 39.28335 ], [ 20.40577, 39.2888 ], [ 20.39357, 39.29694 ], [ 20.36557, 39.28767 ], [ 20.32488, 39.30378 ], [ 20.29282, 39.33344 ], [ 20.2907, 39.36465 ], [ 20.27719, 39.3747 ], [ 20.2697, 39.38736 ], [ 20.25896, 39.39728 ], [ 20.23601, 39.39936 ], [ 20.23601, 39.4062 ], [ 20.24285, 39.4062 ], [ 20.24285, 39.41242 ], [ 20.23471, 39.42036 ], [ 20.22364, 39.43586 ], [ 20.21559, 39.44033 ], [ 20.23276, 39.44465 ], [ 20.25359, 39.44416 ], [ 20.26734, 39.44693 ], [ 20.26393, 39.46076 ], [ 20.25424, 39.46882 ], [ 20.21559, 39.48871 ], [ 20.21559, 39.49494 ], [ 20.23292, 39.49421 ], [ 20.24537, 39.49164 ], [ 20.25506, 39.49238 ], [ 20.26393, 39.50178 ], [ 20.26393, 39.50861 ], [ 20.25359, 39.51423 ], [ 20.23601, 39.52082 ], [ 20.22202, 39.52131 ], [ 20.22242, 39.50861 ], [ 20.21363, 39.51496 ], [ 20.20216, 39.52041 ], [ 20.19068, 39.52167 ], [ 20.20191, 39.52973 ], [ 20.18312, 39.53327 ], [ 20.16578, 39.53474 ], [ 20.14959, 39.53364 ], [ 20.13356, 39.52973 ], [ 20.14129, 39.53783 ], [ 20.14552, 39.54706 ], [ 20.14715, 39.55781 ], [ 20.14666, 39.57071 ], [ 20.15406, 39.56391 ], [ 20.1609, 39.56436 ], [ 20.17457, 39.57685 ], [ 20.17457, 39.59797 ], [ 20.18824, 39.60419 ], [ 20.18181, 39.62446 ], [ 20.16521, 39.63361 ], [ 20.1482, 39.63752 ], [ 20.12135, 39.65681 ], [ 20.10483, 39.66108 ], [ 20.09653, 39.66596 ], [ 20.08888, 39.67308 ], [ 20.04461, 39.68089 ], [ 20.02166, 39.68769 ], [ 20.01002, 39.69355 ], [ 19.99684, 39.69257 ], [ 19.99586, 39.68671 ], [ 19.98902, 39.68671 ], [ 19.98357, 39.70136 ], [ 19.98699, 39.71796 ], [ 20.0027, 39.74824 ], [ 19.98561, 39.75373 ], [ 19.98064, 39.75731 ], [ 19.99586, 39.78295 ], [ 20.01417, 39.83295 ], [ 20.01629, 39.84504 ], [ 20.00978, 39.86567 ], [ 19.99928, 39.87141 ], [ 19.98373, 39.87238 ], [ 19.96168, 39.87857 ], [ 19.95883, 39.88935 ], [ 19.95484, 39.89281 ], [ 19.93116, 39.90192 ], [ 19.91407, 39.90241 ], [ 19.90642, 39.90644 ], [ 19.90642, 39.90865 ], [ 22.71911, 39.90865 ], [ 22.72299, 39.89777 ] ] ], [ [ [ 24.57895, 38.10932 ], [ 24.57993, 38.08421 ], [ 24.59449, 38.0624 ], [ 24.58619, 38.04833 ], [ 24.57553, 38.00446 ], [ 24.56666, 37.98794 ], [ 24.55209, 37.97818 ], [ 24.53175, 37.96918 ], [ 24.50929, 37.96255 ], [ 24.48805, 37.96003 ], [ 24.4769, 37.96247 ], [ 24.47291, 37.96841 ], [ 24.47096, 37.98045 ], [ 24.44776, 38.01057 ], [ 24.4437, 38.01154 ], [ 24.4297, 38.02119 ], [ 24.40309, 38.01191 ], [ 24.3864, 37.99653 ], [ 24.40211, 37.98794 ], [ 24.40211, 37.98045 ], [ 24.38689, 37.97036 ], [ 24.37176, 37.97191 ], [ 24.35719, 37.98045 ], [ 24.33863, 37.99673 ], [ 24.327, 38.01529 ], [ 24.31381, 38.02924 ], [ 24.31398, 38.0351 ], [ 24.327, 38.04255 ], [ 24.31479, 38.06489 ], [ 24.30567, 38.07176 ], [ 24.29225, 38.06989 ], [ 24.28631, 38.08625 ], [ 24.2693, 38.0954 ], [ 24.24871, 38.09687 ], [ 24.23146, 38.09032 ], [ 24.21778, 38.09687 ], [ 24.21258, 38.09589 ], [ 24.20395, 38.09032 ], [ 24.20476, 38.09683 ], [ 24.21079, 38.09781 ], [ 24.21079, 38.12446 ], [ 24.20281, 38.13007 ], [ 24.18605, 38.12739 ], [ 24.18295, 38.135 ], [ 24.18719, 38.14216 ], [ 24.2059, 38.15689 ], [ 24.21079, 38.166 ], [ 24.20875, 38.17862 ], [ 24.19402, 38.19212 ], [ 24.18531, 38.21796 ], [ 24.1727, 38.22655 ], [ 24.15699, 38.22956 ], [ 24.14259, 38.22696 ], [ 24.14877, 38.2132 ], [ 24.12623, 38.21747 ], [ 24.13111, 38.23583 ], [ 24.14861, 38.25658 ], [ 24.1631, 38.26781 ], [ 24.15349, 38.28132 ], [ 24.14552, 38.28091 ], [ 24.12843, 38.26781 ], [ 24.12672, 38.26508 ], [ 24.12574, 38.25609 ], [ 24.11817, 38.25422 ], [ 24.10939, 38.25629 ], [ 24.1089, 38.26073 ], [ 24.11476, 38.26781 ], [ 24.11476, 38.2753 ], [ 24.10092, 38.2753 ], [ 24.12159, 38.30948 ], [ 24.10108, 38.31875 ], [ 24.07944, 38.32538 ], [ 24.05486, 38.32929 ], [ 24.0254, 38.33051 ], [ 24.04965, 38.33649 ], [ 24.05974, 38.34125 ], [ 24.06691, 38.35102 ], [ 24.05909, 38.36005 ], [ 24.05714, 38.36896 ], [ 24.05942, 38.37767 ], [ 24.04908, 38.39452 ], [ 24.04225, 38.40152 ], [ 24.03891, 38.39541 ], [ 23.9808, 38.39887 ], [ 23.91236, 38.39204 ], [ 23.89234, 38.39411 ], [ 23.85808, 38.40351 ], [ 23.84376, 38.40567 ], [ 23.82447, 38.40412 ], [ 23.79396, 38.3985 ], [ 23.77898, 38.39887 ], [ 23.70997, 38.4125 ], [ 23.69516, 38.4112 ], [ 23.66334, 38.4042 ], [ 23.64918, 38.40567 ], [ 23.63852, 38.41551 ], [ 23.61443, 38.46088 ], [ 23.60743, 38.4538 ], [ 23.60231, 38.45238 ], [ 23.594, 38.45344 ], [ 23.60401, 38.46841 ], [ 23.62281, 38.48481 ], [ 23.63575, 38.50092 ], [ 23.6281, 38.51488 ], [ 23.6281, 38.52237 ], [ 23.63551, 38.52237 ], [ 23.63551, 38.52855 ], [ 23.61411, 38.55793 ], [ 23.59995, 38.57136 ], [ 23.58375, 38.57697 ], [ 23.54005, 38.58226 ], [ 23.51881, 38.58869 ], [ 23.50514, 38.5974 ], [ 23.50172, 38.60505 ], [ 23.50074, 38.62263 ], [ 23.49773, 38.63101 ], [ 23.47438, 38.6457 ], [ 23.4673, 38.65229 ], [ 23.46022, 38.65375 ], [ 23.45314, 38.65803 ], [ 23.44996, 38.66942 ], [ 23.44597, 38.67674 ], [ 23.4367, 38.68325 ], [ 23.4065, 38.69807 ], [ 23.3816, 38.70726 ], [ 23.35336, 38.73139 ], [ 23.34376, 38.73456 ], [ 23.33766, 38.73896 ], [ 23.32797, 38.75821 ], [ 23.32301, 38.76252 ], [ 23.30006, 38.77216 ], [ 23.20232, 38.8299 ], [ 23.16814, 38.84447 ], [ 23.14357, 38.85065 ], [ 23.11411, 38.85065 ], [ 23.08351, 38.84565 ], [ 23.0691, 38.84658 ], [ 23.05584, 38.85444 ], [ 23.03639, 38.87446 ], [ 23.02866, 38.87739 ], [ 22.99879, 38.8808 ], [ 22.96941, 38.88911 ], [ 22.95639, 38.88544 ], [ 22.95639, 38.878 ], [ 22.97047, 38.87767 ], [ 22.9839, 38.87352 ], [ 22.99195, 38.86469 ], [ 22.99073, 38.85065 ], [ 22.98178, 38.84504 ], [ 22.96551, 38.84097 ], [ 22.8558, 38.83295 ], [ 22.83302, 38.82274 ], [ 22.83229, 38.83389 ], [ 22.83375, 38.8454 ], [ 22.83741, 38.85448 ], [ 22.87485, 38.8749 ], [ 22.90748, 38.88231 ], [ 22.95281, 38.9016 ], [ 22.98292, 38.90766 ], [ 23.01173, 38.91962 ], [ 23.03566, 38.92642 ], [ 23.03932, 38.92939 ], [ 23.04591, 38.94684 ], [ 23.05747, 38.94994 ], [ 23.07797, 38.95051 ], [ 23.08676, 38.95433 ], [ 23.09376, 38.96259 ], [ 23.09734, 38.97207 ], [ 23.09742, 38.98094 ], [ 23.09441, 38.98786 ], [ 23.10906, 38.99177 ], [ 23.12745, 39.0058 ], [ 23.13803, 39.00898 ], [ 23.19972, 39.00898 ], [ 23.22071, 39.01472 ], [ 23.27296, 39.03876 ], [ 23.29908, 39.04247 ], [ 23.30926, 39.03823 ], [ 23.32399, 39.02481 ], [ 23.32984, 39.02196 ], [ 23.34295, 39.0207 ], [ 23.35776, 39.01675 ], [ 23.37159, 39.01032 ], [ 23.3816, 39.00153 ], [ 23.37436, 38.98249 ], [ 23.38461, 38.96752 ], [ 23.40455, 38.95783 ], [ 23.42563, 38.95433 ], [ 23.42563, 38.94428 ], [ 23.44223, 38.89834 ], [ 23.44996, 38.88544 ], [ 23.45069, 38.87458 ], [ 23.46225, 38.85586 ], [ 23.48048, 38.83808 ], [ 23.52467, 38.82319 ], [ 23.56788, 38.79385 ], [ 23.594, 38.78925 ], [ 23.594, 38.78172 ], [ 23.59132, 38.77416 ], [ 23.594, 38.77021 ], [ 23.60011, 38.77049 ], [ 23.6076, 38.77558 ], [ 23.61997, 38.76553 ], [ 23.64845, 38.76118 ], [ 23.66228, 38.75507 ], [ 23.6727, 38.76044 ], [ 23.68336, 38.75507 ], [ 23.70265, 38.76508 ], [ 23.72267, 38.76195 ], [ 23.73845, 38.74942 ], [ 23.7448, 38.73119 ], [ 23.75359, 38.71918 ], [ 23.77369, 38.70816 ], [ 23.813, 38.69367 ], [ 23.8576, 38.68252 ], [ 23.90594, 38.67939 ], [ 23.92758, 38.67548 ], [ 23.94776, 38.66942 ], [ 23.96656, 38.67011 ], [ 23.98422, 38.68622 ], [ 24.00571, 38.67805 ], [ 24.02882, 38.67792 ], [ 24.05177, 38.68016 ], [ 24.07309, 38.67939 ], [ 24.13649, 38.66181 ], [ 24.15561, 38.65266 ], [ 24.14536, 38.64997 ], [ 24.13494, 38.64387 ], [ 24.12623, 38.6352 ], [ 24.12159, 38.62474 ], [ 24.1211, 38.6081 ], [ 24.12648, 38.59858 ], [ 24.21608, 38.53954 ], [ 24.23146, 38.52237 ], [ 24.20655, 38.50682 ], [ 24.18816, 38.47411 ], [ 24.18434, 38.43964 ], [ 24.20395, 38.41869 ], [ 24.20395, 38.4125 ], [ 24.18507, 38.40762 ], [ 24.18816, 38.39883 ], [ 24.21079, 38.37767 ], [ 24.21485, 38.33641 ], [ 24.23829, 38.31318 ], [ 24.24041, 38.30329 ], [ 24.25245, 38.29239 ], [ 24.25261, 38.26557 ], [ 24.25782, 38.25898 ], [ 24.24513, 38.24116 ], [ 24.25245, 38.22797 ], [ 24.26531, 38.21629 ], [ 24.29225, 38.20018 ], [ 24.327, 38.18594 ], [ 24.33758, 38.16283 ], [ 24.34441, 38.15925 ], [ 24.37859, 38.16446 ], [ 24.39259, 38.16401 ], [ 24.42066, 38.14737 ], [ 24.46062, 38.14403 ], [ 24.47779, 38.13874 ], [ 24.49692, 38.14631 ], [ 24.58766, 38.15925 ], [ 24.57895, 38.10932 ] ] ] ] } },
{ "type": "Feature", "properties": { "kind": "land" }, "geometry": { "type": "MultiPolygon", "coordinates": [ [ [ [ 23.57114, 37.35834 ], [ 23.5477, 37.34984 ], [ 23.52329, 37.34663 ], [ 23.50514, 37.34984 ], [ 23.5088, 37.3299 ], [ 23.49684, 37.32001 ], [ 23.47608, 37.31672 ], [ 23.45362, 37.31635 ], [ 23.39649, 37.30321 ], [ 23.37428, 37.30268 ], [ 23.37428, 37.30952 ], [ 23.46363, 37.35733 ], [ 23.48764, 37.36351 ], [ 23.53256, 37.36392 ], [ 23.55299, 37.37092 ], [ 23.58717, 37.37092 ], [ 23.57114, 37.35834 ] ] ], [ [ [ 23.56316, 37.76826 ], [ 23.55681, 37.75764 ], [ 23.54493, 37.74506 ], [ 23.54615, 37.73347 ], [ 23.53207, 37.72533 ], [ 23.52955, 37.7145 ], [ 23.53012, 37.70295 ], [ 23.52565, 37.69245 ], [ 23.51734, 37.6883 ], [ 23.49464, 37.6835 ], [ 23.48414, 37.67886 ], [ 23.47136, 37.68818 ], [ 23.45737, 37.69245 ], [ 23.45737, 37.69929 ], [ 23.469, 37.70502 ], [ 23.46827, 37.7145 ], [ 23.45932, 37.72333 ], [ 23.44654, 37.72724 ], [ 23.43442, 37.73359 ], [ 23.42709, 37.74775 ], [ 23.42449, 37.76179 ], [ 23.42563, 37.76822 ], [ 23.54615, 37.7744 ], [ 23.56316, 37.76826 ] ] ] ] } },
{ "type": "Feature", "properties": { "kind": "land" }, "geometry": { "type": "MultiPolygon", "coordinates": [ [ [ [ 24.51271, 36.76398 ], [ 24.53338, 36.76801 ], [ 24.54607, 36.75397 ], [ 24.54322, 36.74311 ], [ 24.54607, 36.68879 ], [ 24.53761, 36.68138 ], [ 24.5184, 36.67365 ], [ 24.48463, 36.66523 ], [ 24.36459, 36.66303 ], [ 24.327, 36.65095 ], [ 24.32293, 36.66535 ], [ 24.33131, 36.68716 ], [ 24.327, 36.69937 ], [ 24.34067, 36.71239 ], [ 24.327, 36.71988 ], [ 24.33668, 36.72777 ], [ 24.34474, 36.74567 ], [ 24.35426, 36.75397 ], [ 24.36549, 36.74299 ], [ 24.3816, 36.73355 ], [ 24.39536, 36.73591 ], [ 24.40724, 36.70726 ], [ 24.42652, 36.69937 ], [ 24.4607, 36.69937 ], [ 24.47145, 36.70425 ], [ 24.46852, 36.71516 ], [ 24.45916, 36.72671 ], [ 24.45053, 36.73355 ], [ 24.43686, 36.72748 ], [ 24.42709, 36.73383 ], [ 24.41871, 36.7451 ], [ 24.40886, 36.75397 ], [ 24.40886, 36.76081 ], [ 24.42026, 36.77106 ], [ 24.43328, 36.76504 ], [ 24.45045, 36.7534 ], [ 24.47438, 36.74714 ], [ 24.51271, 36.76398 ] ] ], [ [ [ 25.75554, 36.76996 ], [ 25.73902, 36.79499 ], [ 25.75327, 36.78876 ], [ 25.76075, 36.79906 ], [ 25.7666, 36.80259 ], [ 25.7666, 36.77068 ], [ 25.75554, 36.76996 ] ] ], [ [ [ 25.26881, 37.04613 ], [ 25.26303, 37.03994 ], [ 25.2518, 37.02147 ], [ 25.2448, 37.01459 ], [ 25.23219, 37.00511 ], [ 25.20444, 36.98896 ], [ 25.18849, 36.9853 ], [ 25.15284, 36.98676 ], [ 25.14332, 36.99006 ], [ 25.12192, 37.00458 ], [ 25.1115, 37.00788 ], [ 25.10336, 37.01288 ], [ 25.10304, 37.02432 ], [ 25.11297, 37.06273 ], [ 25.12534, 37.07453 ], [ 25.15626, 37.08979 ], [ 25.14926, 37.09349 ], [ 25.14243, 37.09492 ], [ 25.13575, 37.09382 ], [ 25.15008, 37.11054 ], [ 25.17856, 37.12946 ], [ 25.20981, 37.14403 ], [ 25.23878, 37.15184 ], [ 25.22397, 37.13434 ], [ 25.23194, 37.12751 ], [ 25.25929, 37.12397 ], [ 25.27296, 37.1376 ], [ 25.26612, 37.15184 ], [ 25.2933, 37.15184 ], [ 25.2881, 37.13654 ], [ 25.2798, 37.12397 ], [ 25.26295, 37.08983 ], [ 25.26287, 37.07559 ], [ 25.2798, 37.06928 ], [ 25.2798, 37.06249 ], [ 25.26612, 37.06249 ], [ 25.26612, 37.055 ], [ 25.2798, 37.055 ], [ 25.2798, 37.04881 ], [ 25.26881, 37.04613 ] ] ], [ [ [ 25.5337, 37.20067 ], [ 25.55014, 37.19379 ], [ 25.57455, 37.17853 ], [ 25.58627, 37.16063 ], [ 25.59246, 37.14252 ], [ 25.59506, 37.09968 ], [ 25.59278, 37.08088 ], [ 25.58302, 37.03978 ], [ 25.58082, 37.01777 ], [ 25.5525, 36.96894 ], [ 25.54737, 36.96532 ], [ 25.52613, 36.95942 ], [ 25.49138, 36.93211 ], [ 25.46111, 36.92451 ], [ 25.44988, 36.91844 ], [ 25.4476, 36.92475 ], [ 25.4437, 36.92609 ], [ 25.43678, 36.93211 ], [ 25.43238, 36.93928 ], [ 25.42311, 36.96686 ], [ 25.41668, 36.97313 ], [ 25.38893, 36.98676 ], [ 25.39332, 36.99217 ], [ 25.39405, 36.99811 ], [ 25.39129, 37.00438 ], [ 25.38071, 37.01874 ], [ 25.37973, 37.02684 ], [ 25.38209, 37.03514 ], [ 25.36695, 37.05956 ], [ 25.35548, 37.07136 ], [ 25.34181, 37.07673 ], [ 25.34181, 37.08295 ], [ 25.35239, 37.0891 ], [ 25.3567, 37.08771 ], [ 25.36166, 37.08295 ], [ 25.37184, 37.08906 ], [ 25.40943, 37.12397 ], [ 25.47462, 37.16181 ], [ 25.49513, 37.18911 ], [ 25.50229, 37.19172 ], [ 25.52215, 37.19318 ], [ 25.5337, 37.20067 ] ] ], [ [ [ 25.38258, 37.41975 ], [ 25.30698, 37.41193 ], [ 25.30926, 37.41975 ], [ 25.30698, 37.42866 ], [ 25.30926, 37.43618 ], [ 25.31398, 37.43842 ], [ 25.3213, 37.4392 ], [ 25.32643, 37.46288 ], [ 25.32244, 37.47101 ], [ 25.30698, 37.47272 ], [ 25.31267, 37.48823 ], [ 25.32439, 37.4951 ], [ 25.33774, 37.49958 ], [ 25.34799, 37.50812 ], [ 25.37729, 37.46743 ], [ 25.38209, 37.46967 ], [ 25.38559, 37.48994 ], [ 25.39536, 37.49396 ], [ 25.42677, 37.48701 ], [ 25.44361, 37.47504 ], [ 25.4629, 37.47004 ], [ 25.46559, 37.46336 ], [ 25.46315, 37.45474 ], [ 25.45729, 37.44603 ], [ 25.44256, 37.4409 ], [ 25.42359, 37.44111 ], [ 25.40773, 37.43684 ], [ 25.4026, 37.41816 ], [ 25.38258, 37.41975 ] ] ], [ [ [ 25.08058, 37.58686 ], [ 25.04705, 37.61738 ], [ 25.00864, 37.63178 ], [ 24.99789, 37.63788 ], [ 24.99098, 37.64598 ], [ 24.98439, 37.65803 ], [ 24.98146, 37.67023 ], [ 24.98487, 37.67886 ], [ 24.99789, 37.68187 ], [ 25.05323, 37.67886 ], [ 25.06739, 37.67259 ], [ 25.06739, 37.66519 ], [ 25.05991, 37.66519 ], [ 25.05991, 37.65835 ], [ 25.07008, 37.65778 ], [ 25.07748, 37.65493 ], [ 25.0879, 37.64468 ], [ 25.10377, 37.65375 ], [ 25.12273, 37.65168 ], [ 25.13982, 37.64273 ], [ 25.14942, 37.63105 ], [ 25.16481, 37.64582 ], [ 25.19264, 37.6413 ], [ 25.22299, 37.62983 ], [ 25.24562, 37.62421 ], [ 25.23878, 37.61738 ], [ 25.24733, 37.61489 ], [ 25.25278, 37.60871 ], [ 25.25929, 37.59003 ], [ 25.23471, 37.56289 ], [ 25.22731, 37.53742 ], [ 25.21599, 37.5329 ], [ 25.16993, 37.53864 ], [ 25.1421, 37.55272 ], [ 25.1255, 37.55589 ], [ 25.11557, 37.56013 ], [ 25.10328, 37.57844 ], [ 25.08058, 37.58686 ] ] ], [ [ [ 24.40252, 37.65575 ], [ 24.39576, 37.62466 ], [ 24.37013, 37.59512 ], [ 24.34067, 37.56957 ], [ 24.313, 37.53823 ], [ 24.29347, 37.5257 ], [ 24.2754, 37.53168 ], [ 24.27516, 37.5456 ], [ 24.27996, 37.59577 ], [ 24.27809, 37.62287 ], [ 24.28932, 37.64533 ], [ 24.30567, 37.66083 ], [ 24.32065, 37.65835 ], [ 24.33383, 37.67259 ], [ 24.32065, 37.67259 ], [ 24.32065, 37.67886 ], [ 24.33041, 37.68399 ], [ 24.33969, 37.68627 ], [ 24.34799, 37.68488 ], [ 24.35426, 37.67886 ], [ 24.36109, 37.67886 ], [ 24.36166, 37.68504 ], [ 24.37477, 37.68627 ], [ 24.40252, 37.65575 ] ] ], [ [ [ 20.91798, 37.76529 ], [ 20.98683, 37.72989 ], [ 20.99635, 37.69929 ], [ 20.98308, 37.71231 ], [ 20.95436, 37.72386 ], [ 20.92091, 37.73168 ], [ 20.89389, 37.73347 ], [ 20.87916, 37.72822 ], [ 20.86329, 37.7106 ], [ 20.84352, 37.70156 ], [ 20.84376, 37.68993 ], [ 20.85304, 37.67259 ], [ 20.85133, 37.65941 ], [ 20.84685, 37.65331 ], [ 20.83595, 37.65152 ], [ 20.81511, 37.65152 ], [ 20.80787, 37.65607 ], [ 20.77719, 37.68627 ], [ 20.72779, 37.71849 ], [ 20.70436, 37.73835 ], [ 20.70216, 37.75454 ], [ 20.68043, 37.76996 ], [ 20.64243, 37.8111 ], [ 20.61948, 37.82282 ], [ 20.62648, 37.83442 ], [ 20.62208, 37.8513 ], [ 20.6277, 37.85761 ], [ 20.61948, 37.86441 ], [ 20.66, 37.91055 ], [ 20.68572, 37.92959 ], [ 20.70899, 37.92524 ], [ 20.70981, 37.91962 ], [ 20.71437, 37.91527 ], [ 20.71363, 37.91315 ], [ 20.73414, 37.8819 ], [ 20.74195, 37.86229 ], [ 20.75245, 37.85489 ], [ 20.77719, 37.84333 ], [ 20.80885, 37.84955 ], [ 20.85011, 37.83641 ], [ 20.886, 37.81395 ], [ 20.90138, 37.79243 ], [ 20.91798, 37.76529 ] ] ], [ [ [ 24.9944, 37.7541 ], [ 24.98552, 37.73599 ], [ 24.9712, 37.71865 ], [ 24.95753, 37.70673 ], [ 24.96372, 37.68627 ], [ 24.95753, 37.68627 ], [ 24.94972, 37.69611 ], [ 24.92693, 37.71011 ], [ 24.91603, 37.71979 ], [ 24.89747, 37.76179 ], [ 24.8921, 37.76822 ], [ 24.87672, 37.76952 ], [ 24.86524, 37.77383 ], [ 24.85499, 37.7814 ], [ 24.84425, 37.79243 ], [ 24.82814, 37.81729 ], [ 24.81658, 37.82388 ], [ 24.79998, 37.81599 ], [ 24.7942, 37.84382 ], [ 24.77573, 37.86225 ], [ 24.75392, 37.87641 ], [ 24.73854, 37.89175 ], [ 24.7317, 37.89175 ], [ 24.72462, 37.8819 ], [ 24.71616, 37.8791 ], [ 24.71217, 37.88434 ], [ 24.71803, 37.89859 ], [ 24.70932, 37.90656 ], [ 24.69549, 37.92463 ], [ 24.68385, 37.93268 ], [ 24.69565, 37.93553 ], [ 24.69654, 37.94025 ], [ 24.69264, 37.94709 ], [ 24.69011, 37.95628 ], [ 24.69361, 37.96577 ], [ 24.70191, 37.97264 ], [ 24.75701, 37.99657 ], [ 24.77906, 38.00023 ], [ 24.79371, 37.99409 ], [ 24.79233, 37.98334 ], [ 24.79469, 37.97712 ], [ 24.80055, 37.97431 ], [ 24.81056, 37.97362 ], [ 24.82081, 37.97036 ], [ 24.83009, 37.96308 ], [ 24.83465, 37.9558 ], [ 24.83074, 37.95254 ], [ 24.83041, 37.94774 ], [ 24.83758, 37.92548 ], [ 24.84083, 37.91901 ], [ 24.8484, 37.91486 ], [ 24.87501, 37.90599 ], [ 24.95387, 37.90599 ], [ 24.96372, 37.8968 ], [ 24.95916, 37.87637 ], [ 24.94337, 37.84333 ], [ 24.98487, 37.81599 ], [ 24.97836, 37.81147 ], [ 24.9712, 37.80915 ], [ 24.97202, 37.79637 ], [ 24.95834, 37.78124 ], [ 24.95753, 37.7744 ], [ 24.96437, 37.76874 ], [ 24.98048, 37.77399 ], [ 24.99171, 37.76822 ], [ 24.9944, 37.7541 ] ] ], [ [ [ 20.58546, 38.61791 ], [ 20.56544, 38.5937 ], [ 20.55128, 38.56953 ], [ 20.54461, 38.56953 ], [ 20.54493, 38.59471 ], [ 20.56235, 38.69123 ], [ 20.58123, 38.72435 ], [ 20.58546, 38.74457 ], [ 20.60255, 38.78172 ], [ 20.61215, 38.78583 ], [ 20.62029, 38.7956 ], [ 20.63331, 38.81656 ], [ 20.64527, 38.82819 ], [ 20.66391, 38.84101 ], [ 20.68629, 38.85008 ], [ 20.6902, 38.84138 ], [ 20.70216, 38.83698 ], [ 20.71778, 38.8227 ], [ 20.72193, 38.80736 ], [ 20.72291, 38.79316 ], [ 20.72934, 38.78172 ], [ 20.72389, 38.76996 ], [ 20.72446, 38.7604 ], [ 20.72934, 38.74457 ], [ 20.72885, 38.73062 ], [ 20.70151, 38.69798 ], [ 20.69695, 38.68985 ], [ 20.69874, 38.68281 ], [ 20.70607, 38.68041 ], [ 20.71551, 38.69912 ], [ 20.7225, 38.70726 ], [ 20.72389, 38.69245 ], [ 20.72071, 38.63841 ], [ 20.71599, 38.62702 ], [ 20.70948, 38.62568 ], [ 20.70216, 38.63841 ], [ 20.69532, 38.63841 ], [ 20.70216, 38.61791 ], [ 20.68784, 38.62474 ], [ 20.68719, 38.61725 ], [ 20.68165, 38.60423 ], [ 20.66481, 38.61091 ], [ 20.64894, 38.60859 ], [ 20.64088, 38.60057 ], [ 20.64763, 38.59003 ], [ 20.64763, 38.58381 ], [ 20.63697, 38.58466 ], [ 20.63087, 38.58832 ], [ 20.62924, 38.59488 ], [ 20.63331, 38.60423 ], [ 20.61362, 38.607 ], [ 20.60231, 38.62678 ], [ 20.58546, 38.61791 ] ] ], [ [ [ 24.66326, 38.82665 ], [ 24.68295, 38.80048 ], [ 24.68287, 38.78425 ], [ 24.67563, 38.78417 ], [ 24.67026, 38.78172 ], [ 24.65748, 38.76923 ], [ 24.65024, 38.76822 ], [ 24.64226, 38.77558 ], [ 24.63543, 38.77558 ], [ 24.62525, 38.76923 ], [ 24.61378, 38.7731 ], [ 24.6045, 38.78254 ], [ 24.60076, 38.79267 ], [ 24.58188, 38.7873 ], [ 24.57, 38.77814 ], [ 24.56666, 38.76252 ], [ 24.5324, 38.79609 ], [ 24.57399, 38.80976 ], [ 24.56381, 38.83857 ], [ 24.55698, 38.84569 ], [ 24.54607, 38.83698 ], [ 24.54038, 38.83698 ], [ 24.53696, 38.84821 ], [ 24.52833, 38.85155 ], [ 24.51686, 38.84955 ], [ 24.50514, 38.84447 ], [ 24.50522, 38.85505 ], [ 24.4826, 38.86278 ], [ 24.47779, 38.878 ], [ 24.47413, 38.87617 ], [ 24.47096, 38.87116 ], [ 24.46339, 38.88028 ], [ 24.4546, 38.88483 ], [ 24.44549, 38.88426 ], [ 24.43621, 38.878 ], [ 24.43483, 38.88813 ], [ 24.43881, 38.89712 ], [ 24.44581, 38.90347 ], [ 24.45395, 38.90595 ], [ 24.46217, 38.91096 ], [ 24.46241, 38.92219 ], [ 24.45729, 38.94009 ], [ 24.45769, 38.95482 ], [ 24.46111, 38.96768 ], [ 24.4712, 38.97687 ], [ 24.49147, 38.98102 ], [ 24.56072, 38.94416 ], [ 24.57399, 38.9326 ], [ 24.57594, 38.92292 ], [ 24.57252, 38.8985 ], [ 24.57399, 38.88544 ], [ 24.57862, 38.87556 ], [ 24.58416, 38.87092 ], [ 24.60076, 38.86433 ], [ 24.64259, 38.8417 ], [ 24.66326, 38.82665 ] ] ], [ [ [ 20.09685, 39.4228 ], [ 20.10572, 39.39252 ], [ 20.11769, 39.378 ], [ 20.11793, 39.371 ], [ 20.10572, 39.36465 ], [ 20.09685, 39.37055 ], [ 20.07203, 39.37629 ], [ 20.04884, 39.38959 ], [ 20.0324, 39.39501 ], [ 19.99928, 39.39936 ], [ 19.99041, 39.40327 ], [ 19.96485, 39.42097 ], [ 19.95484, 39.42609 ], [ 19.92384, 39.42772 ], [ 19.91179, 39.43032 ], [ 19.90748, 39.435 ], [ 19.91489, 39.43391 ], [ 19.92172, 39.43781 ], [ 19.9275, 39.44717 ], [ 19.89275, 39.45596 ], [ 19.87973, 39.46076 ], [ 19.87892, 39.45319 ], [ 19.86557, 39.46857 ], [ 19.85483, 39.48896 ], [ 19.84767, 39.50967 ], [ 19.84083, 39.55199 ], [ 19.82887, 39.57233 ], [ 19.80983, 39.58906 ], [ 19.78419, 39.60419 ], [ 19.761, 39.61298 ], [ 19.74855, 39.62002 ], [ 19.71892, 39.67308 ], [ 19.68971, 39.67414 ], [ 19.68133, 39.68 ], [ 19.67433, 39.69355 ], [ 19.67701, 39.7167 ], [ 19.67172, 39.72407 ], [ 19.65317, 39.71467 ], [ 19.65358, 39.73041 ], [ 19.65016, 39.74177 ], [ 19.64161, 39.74795 ], [ 19.62648, 39.74824 ], [ 19.6364, 39.75642 ], [ 19.66228, 39.78449 ], [ 19.66749, 39.79352 ], [ 19.67693, 39.79515 ], [ 19.7697, 39.79808 ], [ 19.79908, 39.8028 ], [ 19.82496, 39.81147 ], [ 19.85182, 39.82453 ], [ 19.86557, 39.82103 ], [ 19.89283, 39.80341 ], [ 19.91879, 39.79682 ], [ 19.92897, 39.79206 ], [ 19.93434, 39.78295 ], [ 19.94117, 39.78295 ], [ 19.94117, 39.79035 ], [ 19.94801, 39.79035 ], [ 19.9463, 39.75922 ], [ 19.93377, 39.74116 ], [ 19.91293, 39.73045 ], [ 19.85157, 39.71052 ], [ 19.84156, 39.70417 ], [ 19.83595, 39.69245 ], [ 19.83912, 39.67988 ], [ 19.84767, 39.66999 ], [ 19.85865, 39.66625 ], [ 19.85865, 39.65884 ], [ 19.84498, 39.65884 ], [ 19.84498, 39.65266 ], [ 19.90382, 39.62906 ], [ 19.9275, 39.62531 ], [ 19.92351, 39.6035 ], [ 19.91717, 39.59886 ], [ 19.90016, 39.60419 ], [ 19.91188, 39.5834 ], [ 19.93247, 39.47871 ], [ 19.93653, 39.47297 ], [ 19.94801, 39.46699 ], [ 19.96144, 39.46296 ], [ 19.98943, 39.4584 ], [ 20.0027, 39.45401 ], [ 20.02369, 39.44135 ], [ 20.03273, 39.43928 ], [ 20.05047, 39.44033 ], [ 20.06511, 39.44453 ], [ 20.07407, 39.44896 ], [ 20.08188, 39.44733 ], [ 20.09205, 39.43354 ], [ 20.09685, 39.4228 ] ] ], [ [ [ 25.34799, 39.90644 ], [ 25.36166, 39.89989 ], [ 25.3685, 39.89899 ], [ 25.3532, 39.89265 ], [ 25.34164, 39.88386 ], [ 25.34034, 39.87421 ], [ 25.35548, 39.86555 ], [ 25.34278, 39.85464 ], [ 25.3484, 39.84374 ], [ 25.36069, 39.83356 ], [ 25.3685, 39.82453 ], [ 25.36988, 39.81712 ], [ 25.36402, 39.81599 ], [ 25.35548, 39.81025 ], [ 25.35279, 39.79328 ], [ 25.34897, 39.78767 ], [ 25.3322, 39.79609 ], [ 25.30356, 39.80341 ], [ 25.29526, 39.80768 ], [ 25.29363, 39.82648 ], [ 25.29029, 39.83076 ], [ 25.27312, 39.83568 ], [ 25.2566, 39.8559 ], [ 25.23878, 39.85806 ], [ 25.26173, 39.87043 ], [ 25.27426, 39.88007 ], [ 25.2798, 39.88911 ], [ 25.27516, 39.90363 ], [ 25.26936, 39.90865 ], [ 25.35068, 39.90865 ], [ 25.34799, 39.90644 ] ] ], [ [ [ 25.19711, 39.89281 ], [ 25.21388, 39.89179 ], [ 25.22511, 39.8854 ], [ 25.20729, 39.88312 ], [ 25.19418, 39.8736 ], [ 25.18458, 39.85981 ], [ 25.17726, 39.84504 ], [ 25.18767, 39.84907 ], [ 25.19093, 39.85187 ], [ 25.20216, 39.84101 ], [ 25.21453, 39.82469 ], [ 25.22104, 39.80996 ], [ 25.21453, 39.80341 ], [ 25.19272, 39.80439 ], [ 25.17506, 39.80703 ], [ 25.14324, 39.81708 ], [ 25.16993, 39.84846 ], [ 25.16489, 39.85908 ], [ 25.15382, 39.85578 ], [ 25.14226, 39.8461 ], [ 25.13575, 39.83759 ], [ 25.12892, 39.83759 ], [ 25.12843, 39.8454 ], [ 25.12208, 39.85806 ], [ 25.06414, 39.84414 ], [ 25.05323, 39.83759 ], [ 25.04705, 39.83759 ], [ 25.05397, 39.84911 ], [ 25.06739, 39.85806 ], [ 25.05454, 39.86396 ], [ 25.04705, 39.86555 ], [ 25.04851, 39.87421 ], [ 25.04705, 39.87857 ], [ 25.05991, 39.8854 ], [ 25.05991, 39.89281 ], [ 25.05323, 39.89281 ], [ 25.05323, 39.89899 ], [ 25.05779, 39.90021 ], [ 25.06739, 39.90644 ], [ 25.05991, 39.90644 ], [ 25.06118, 39.90865 ], [ 25.22183, 39.90865 ], [ 25.19711, 39.89281 ] ] ] ] } },
{ "type": "Feature", "properties": { "kind": "land" }, "geometry": { "type": "MultiPolygon", "coordinates": [ [ [ [ 24.94793, 36.62434 ], [ 24.96372, 36.60253 ], [ 24.96372, 36.59634 ], [ 24.938, 36.59772 ], [ 24.92286, 36.60228 ], [ 24.89552, 36.62425 ], [ 24.87941, 36.6328 ], [ 24.86345, 36.63817 ], [ 24.84978, 36.64692 ], [ 24.84083, 36.66523 ], [ 24.86817, 36.66523 ], [ 24.94793, 36.62434 ] ] ], [ [ [ 25.1858, 36.71914 ], [ 25.18312, 36.71638 ], [ 25.18344, 36.7062 ], [ 25.12957, 36.66035 ], [ 25.09311, 36.63662 ], [ 25.06739, 36.63788 ], [ 25.10467, 36.69937 ], [ 25.11647, 36.70258 ], [ 25.1364, 36.7167 ], [ 25.14625, 36.71988 ], [ 25.1858, 36.71914 ] ] ], [ [ [ 21.78004, 36.7475 ], [ 21.78159, 36.7364 ], [ 21.77801, 36.72036 ], [ 21.77784, 36.69937 ], [ 21.76808, 36.70808 ], [ 21.76417, 36.71988 ], [ 21.7505, 36.71239 ], [ 21.75953, 36.7519 ], [ 21.76417, 36.75397 ], [ 21.78004, 36.7475 ] ] ], [ [ [ 24.65626, 36.7829 ], [ 24.66578, 36.77464 ], [ 24.66774, 36.76398 ], [ 24.65935, 36.75056 ], [ 24.64479, 36.74726 ], [ 24.62973, 36.75755 ], [ 24.60816, 36.78132 ], [ 24.62184, 36.79499 ], [ 24.63868, 36.79462 ], [ 24.64381, 36.79295 ], [ 24.64226, 36.78876 ], [ 24.65626, 36.7829 ] ] ], [ [ [ 21.69695, 36.77582 ], [ 21.70086, 36.79108 ], [ 21.70948, 36.80174 ], [ 21.72283, 36.79462 ], [ 21.72934, 36.79499 ], [ 21.72934, 36.78876 ], [ 21.71632, 36.78132 ], [ 21.71656, 36.77094 ], [ 21.70232, 36.75194 ], [ 21.69581, 36.74038 ], [ 21.69695, 36.77582 ] ] ], [ [ [ 24.60816, 36.82909 ], [ 24.60043, 36.82209 ], [ 24.57276, 36.78193 ], [ 24.55641, 36.78034 ], [ 24.53981, 36.78449 ], [ 24.5324, 36.7919 ], [ 24.52955, 36.80366 ], [ 24.5241, 36.81049 ], [ 24.52117, 36.81737 ], [ 24.52613, 36.82909 ], [ 24.53419, 36.83613 ], [ 24.54721, 36.84247 ], [ 24.56178, 36.84565 ], [ 24.57399, 36.84276 ], [ 24.58595, 36.83649 ], [ 24.59246, 36.83747 ], [ 24.60076, 36.84276 ], [ 24.60304, 36.8369 ], [ 24.60816, 36.83592 ], [ 24.60816, 36.82909 ] ] ], [ [ [ 25.43035, 36.84406 ], [ 25.44695, 36.85741 ], [ 25.47096, 36.87067 ], [ 25.47836, 36.87067 ], [ 25.47096, 36.86323 ], [ 25.47641, 36.8627 ], [ 25.47853, 36.86001 ], [ 25.47779, 36.83515 ], [ 25.45786, 36.82486 ], [ 25.43442, 36.82266 ], [ 25.42311, 36.83251 ], [ 25.43035, 36.84406 ] ] ], [ [ [ 25.61459, 36.89374 ], [ 25.63746, 36.90323 ], [ 25.64967, 36.91161 ], [ 25.65943, 36.90746 ], [ 25.68442, 36.89118 ], [ 25.674, 36.87946 ], [ 25.65463, 36.87889 ], [ 25.6316, 36.88264 ], [ 25.60865, 36.88373 ], [ 25.61459, 36.89374 ] ] ], [ [ [ 25.06666, 36.95515 ], [ 25.04705, 36.96922 ], [ 25.03053, 36.98896 ], [ 25.02589, 37.00788 ], [ 25.03549, 37.02192 ], [ 25.05323, 37.03437 ], [ 25.07276, 37.04218 ], [ 25.0879, 37.04198 ], [ 25.06959, 36.98957 ], [ 25.05991, 36.97309 ], [ 25.07195, 36.96385 ], [ 25.08107, 36.95262 ], [ 25.06666, 36.95515 ] ] ], [ [ [ 23.12843, 37.2884 ], [ 23.15105, 37.2768 ], [ 23.15846, 37.27139 ], [ 23.16245, 37.26435 ], [ 23.16472, 37.25381 ], [ 23.16236, 37.24421 ], [ 23.15203, 37.23998 ], [ 23.13103, 37.24372 ], [ 23.11899, 37.25283 ], [ 23.10914, 37.26415 ], [ 23.09441, 37.27473 ], [ 23.10141, 37.28095 ], [ 23.10955, 37.28535 ], [ 23.1185, 37.28779 ], [ 23.12843, 37.2884 ] ] ], [ [ [ 23.48178, 37.55646 ], [ 23.48414, 37.54906 ], [ 23.49204, 37.53913 ], [ 23.50082, 37.53262 ], [ 23.51157, 37.52904 ], [ 23.52565, 37.52802 ], [ 23.52565, 37.5218 ], [ 23.50636, 37.51284 ], [ 23.48121, 37.50959 ], [ 23.4559, 37.51252 ], [ 23.43629, 37.5218 ], [ 23.43629, 37.52802 ], [ 23.46461, 37.53376 ], [ 23.47543, 37.54084 ], [ 23.47731, 37.55589 ], [ 23.48178, 37.55646 ] ] ], [ [ [ 20.91928, 38.57909 ], [ 20.90935, 38.56293 ], [ 20.90756, 38.54902 ], [ 20.89389, 38.54902 ], [ 20.89389, 38.55646 ], [ 20.93214, 38.60301 ], [ 20.94109, 38.60423 ], [ 20.91928, 38.57909 ] ] ], [ [ [ 25.59523, 38.60395 ], [ 25.62233, 38.58381 ], [ 25.62281, 38.57909 ], [ 25.61492, 38.57697 ], [ 25.60499, 38.53535 ], [ 25.57154, 38.54125 ], [ 25.5608, 38.53535 ], [ 25.55738, 38.54462 ], [ 25.56186, 38.55687 ], [ 25.5608, 38.5633 ], [ 25.54526, 38.57697 ], [ 25.54038, 38.58381 ], [ 25.52817, 38.59174 ], [ 25.5232, 38.5974 ], [ 25.52613, 38.60423 ], [ 25.53297, 38.60688 ], [ 25.53924, 38.60464 ], [ 25.54664, 38.5974 ], [ 25.55258, 38.6044 ], [ 25.56007, 38.60932 ], [ 25.56788, 38.61001 ], [ 25.57455, 38.60423 ], [ 25.58082, 38.60423 ], [ 25.58082, 38.61172 ], [ 25.58888, 38.61172 ], [ 25.59523, 38.60395 ] ] ], [ [ [ 23.4253, 39.14867 ], [ 23.40431, 39.14912 ], [ 23.39527, 39.14614 ], [ 23.39869, 39.16364 ], [ 23.41066, 39.17036 ], [ 23.42351, 39.17243 ], [ 23.42945, 39.17621 ], [ 23.43385, 39.18696 ], [ 23.44467, 39.19847 ], [ 23.45818, 39.20832 ], [ 23.47047, 39.21381 ], [ 23.48683, 39.20612 ], [ 23.50375, 39.19428 ], [ 23.51287, 39.17853 ], [ 23.50514, 39.15913 ], [ 23.48902, 39.16877 ], [ 23.47511, 39.15778 ], [ 23.46046, 39.13182 ], [ 23.45289, 39.13345 ], [ 23.44459, 39.14204 ], [ 23.43629, 39.14614 ], [ 23.4253, 39.14867 ] ] ], [ [ [ 20.15561, 39.2285 ], [ 20.17335, 39.21723 ], [ 20.19011, 39.20262 ], [ 20.20191, 39.17963 ], [ 20.18149, 39.18016 ], [ 20.16871, 39.18281 ], [ 20.1587, 39.18915 ], [ 20.13844, 39.2093 ], [ 20.1281, 39.22313 ], [ 20.12534, 39.23603 ], [ 20.14039, 39.24169 ], [ 20.15561, 39.2285 ] ] ], [ [ [ 25.04737, 39.54536 ], [ 25.04038, 39.52058 ], [ 24.99171, 39.46699 ], [ 24.98487, 39.46699 ], [ 24.97364, 39.51463 ], [ 24.97657, 39.53767 ], [ 24.99789, 39.5502 ], [ 24.99448, 39.55817 ], [ 24.99676, 39.56196 ], [ 25.00318, 39.56322 ], [ 25.01222, 39.56387 ], [ 25.04737, 39.54536 ] ] ], [ [ [ 23.88429, 36.84357 ], [ 23.88901, 36.8343 ], [ 23.88429, 36.83234 ], [ 23.87696, 36.83649 ], [ 23.87672, 36.8437 ], [ 23.88429, 36.84357 ] ] ], [ [ [ 23.4642, 36.91706 ], [ 23.4673, 36.9064 ], [ 23.46388, 36.904 ], [ 23.45777, 36.90644 ], [ 23.4546, 36.91519 ], [ 23.45248, 36.91645 ], [ 23.45314, 36.92137 ], [ 23.44972, 36.92914 ], [ 23.45607, 36.9278 ], [ 23.45965, 36.92137 ], [ 23.4642, 36.91706 ] ] ], [ [ [ 24.7378, 37.60786 ], [ 24.74122, 37.59569 ], [ 24.71811, 37.59357 ], [ 24.67237, 37.60049 ], [ 24.65968, 37.60688 ], [ 24.67791, 37.60944 ], [ 24.69402, 37.61518 ], [ 24.70387, 37.6247 ], [ 24.71608, 37.63105 ], [ 24.73292, 37.63207 ], [ 24.74106, 37.62592 ], [ 24.7378, 37.60786 ] ] ], [ [ [ 20.95167, 38.64924 ], [ 20.95289, 38.63886 ], [ 20.94166, 38.62739 ], [ 20.92905, 38.61933 ], [ 20.89812, 38.60602 ], [ 20.88697, 38.59634 ], [ 20.87867, 38.58442 ], [ 20.87062, 38.58251 ], [ 20.86736, 38.59223 ], [ 20.87013, 38.6035 ], [ 20.88836, 38.62897 ], [ 20.90382, 38.64277 ], [ 20.9214, 38.6481 ], [ 20.94516, 38.65249 ], [ 20.95167, 38.64924 ] ] ], [ [ [ 20.80502, 38.66568 ], [ 20.80535, 38.66193 ], [ 20.80193, 38.65668 ], [ 20.78858, 38.64472 ], [ 20.76287, 38.63911 ], [ 20.75961, 38.62739 ], [ 20.7907, 38.60521 ], [ 20.80006, 38.59545 ], [ 20.78712, 38.5998 ], [ 20.75172, 38.62604 ], [ 20.73699, 38.65217 ], [ 20.74643, 38.66348 ], [ 20.76197, 38.66608 ], [ 20.78305, 38.67499 ], [ 20.79274, 38.66865 ], [ 20.79762, 38.66999 ], [ 20.79982, 38.66877 ], [ 20.79884, 38.66572 ], [ 20.80502, 38.66568 ] ] ], [ [ [ 24.09059, 39.34903 ], [ 24.09474, 39.34553 ], [ 24.094, 39.33002 ], [ 24.08188, 39.30475 ], [ 24.06316, 39.29702 ], [ 24.05372, 39.30524 ], [ 24.0547, 39.3122 ], [ 24.05942, 39.31444 ], [ 24.056, 39.31892 ], [ 24.04575, 39.32331 ], [ 24.04151, 39.33051 ], [ 24.04493, 39.3415 ], [ 24.05079, 39.352 ], [ 24.0586, 39.36127 ], [ 24.06715, 39.36302 ], [ 24.06983, 39.34569 ], [ 24.08131, 39.35236 ], [ 24.09059, 39.34903 ] ] ] ] } },
{ "type": "Feature", "properties": { "kind": "land" }, "geometry": { "type": "MultiPolygon", "coordinates": [ [ [ [ 25.41798, 36.4704 ], [ 25.45506, 36.44769 ], [ 25.42034, 36.44769 ], [ 25.42189, 36.45112 ], [ 25.40707, 36.45799 ], [ 25.3685, 36.46662 ], [ 25.3685, 36.47346 ], [ 25.38209, 36.47964 ], [ 25.41798, 36.4704 ] ] ], [ [ [ 25.27296, 36.71988 ], [ 25.2798, 36.72671 ], [ 25.2518, 36.72671 ], [ 25.26238, 36.7497 ], [ 25.26498, 36.76215 ], [ 25.26271, 36.76765 ], [ 25.30698, 36.79499 ], [ 25.31951, 36.78193 ], [ 25.33619, 36.75772 ], [ 25.34799, 36.74714 ], [ 25.3659, 36.73957 ], [ 25.3838, 36.73509 ], [ 25.39942, 36.72797 ], [ 25.40943, 36.71239 ], [ 25.39698, 36.71052 ], [ 25.39015, 36.70368 ], [ 25.3895, 36.69424 ], [ 25.39519, 36.68513 ], [ 25.39519, 36.6789 ], [ 25.37322, 36.65371 ], [ 25.3379, 36.66828 ], [ 25.27296, 36.71988 ] ] ], [ [ [ 24.71616, 37.02009 ], [ 24.75164, 36.98579 ], [ 24.76466, 36.95661 ], [ 24.7658, 36.9492 ], [ 24.76271, 36.94538 ], [ 24.74855, 36.93936 ], [ 24.71062, 36.9042 ], [ 24.69581, 36.92324 ], [ 24.67888, 36.95148 ], [ 24.6692, 36.97846 ], [ 24.67652, 36.9936 ], [ 24.67652, 37.00043 ], [ 24.66586, 37.00747 ], [ 24.65406, 37.02432 ], [ 24.64226, 37.02774 ], [ 24.64405, 37.03563 ], [ 24.64967, 37.04198 ], [ 24.6434, 37.04287 ], [ 24.64226, 37.04881 ], [ 24.65594, 37.04881 ], [ 24.6797, 37.03286 ], [ 24.6893, 37.0292 ], [ 24.69752, 37.03514 ], [ 24.70436, 37.03514 ], [ 24.71616, 37.02009 ] ] ], [ [ [ 24.43621, 37.18537 ], [ 24.46827, 37.20209 ], [ 24.48561, 37.20612 ], [ 24.4983, 37.19965 ], [ 24.50514, 37.19965 ], [ 24.50978, 37.2049 ], [ 24.5149, 37.206 ], [ 24.52052, 37.20392 ], [ 24.52613, 37.19965 ], [ 24.53207, 37.18561 ], [ 24.53468, 37.16767 ], [ 24.53452, 37.14834 ], [ 24.5324, 37.13011 ], [ 24.52613, 37.14444 ], [ 24.51881, 37.14444 ], [ 24.51889, 37.13207 ], [ 24.51531, 37.12287 ], [ 24.50815, 37.11591 ], [ 24.4983, 37.1103 ], [ 24.49147, 37.11774 ], [ 24.49098, 37.12226 ], [ 24.4983, 37.12397 ], [ 24.48976, 37.12812 ], [ 24.48097, 37.12971 ], [ 24.4725, 37.12836 ], [ 24.46412, 37.12397 ], [ 24.46209, 37.13349 ], [ 24.45948, 37.13719 ], [ 24.45582, 37.13589 ], [ 24.45053, 37.13011 ], [ 24.44207, 37.13447 ], [ 24.43442, 37.13418 ], [ 24.42807, 37.13032 ], [ 24.42254, 37.12397 ], [ 24.41912, 37.13565 ], [ 24.43051, 37.14444 ], [ 24.42351, 37.14985 ], [ 24.42302, 37.15473 ], [ 24.43621, 37.16486 ], [ 24.43279, 37.17227 ], [ 24.43474, 37.17548 ], [ 24.4437, 37.17853 ], [ 24.43621, 37.18537 ] ] ], [ [ [ 24.37485, 37.43846 ], [ 24.39568, 37.45685 ], [ 24.41961, 37.47158 ], [ 24.43621, 37.48701 ], [ 24.4437, 37.48701 ], [ 24.4437, 37.47272 ], [ 24.43434, 37.45075 ], [ 24.43051, 37.44603 ], [ 24.46941, 37.42748 ], [ 24.48268, 37.41242 ], [ 24.47779, 37.39081 ], [ 24.46339, 37.39448 ], [ 24.45281, 37.38345 ], [ 24.44614, 37.36579 ], [ 24.4437, 37.34984 ], [ 24.41179, 37.32396 ], [ 24.38901, 37.31391 ], [ 24.36793, 37.30952 ], [ 24.37672, 37.34496 ], [ 24.38559, 37.36115 ], [ 24.40211, 37.37092 ], [ 24.40211, 37.37714 ], [ 24.38844, 37.38459 ], [ 24.38844, 37.39081 ], [ 24.39682, 37.40152 ], [ 24.39479, 37.41177 ], [ 24.38453, 37.41682 ], [ 24.36793, 37.41193 ], [ 24.37485, 37.43846 ] ] ], [ [ [ 24.94337, 37.43549 ], [ 24.95916, 37.42487 ], [ 24.96372, 37.41816 ], [ 24.96616, 37.40778 ], [ 24.96404, 37.40176 ], [ 24.95655, 37.39704 ], [ 24.89625, 37.37165 ], [ 24.88185, 37.36351 ], [ 24.88217, 37.38036 ], [ 24.88868, 37.39081 ], [ 24.88868, 37.39826 ], [ 24.86134, 37.39826 ], [ 24.86817, 37.4147 ], [ 24.87403, 37.42072 ], [ 24.88185, 37.4256 ], [ 24.86817, 37.43179 ], [ 24.88673, 37.43529 ], [ 24.89812, 37.44868 ], [ 24.90268, 37.46577 ], [ 24.90235, 37.48017 ], [ 24.89625, 37.50194 ], [ 24.89536, 37.51044 ], [ 24.90496, 37.51081 ], [ 24.9297, 37.50812 ], [ 24.93881, 37.49974 ], [ 24.94809, 37.48558 ], [ 24.95509, 37.47065 ], [ 24.95753, 37.4597 ], [ 24.95493, 37.45262 ], [ 24.94532, 37.44335 ], [ 24.94337, 37.43549 ] ] ], [ [ [ 23.40211, 37.90599 ], [ 23.40211, 37.91218 ], [ 23.40895, 37.92194 ], [ 23.42286, 37.93301 ], [ 23.43946, 37.9396 ], [ 23.46852, 37.93203 ], [ 23.4817, 37.94172 ], [ 23.49773, 37.96686 ], [ 23.48561, 37.96625 ], [ 23.46925, 37.95531 ], [ 23.46046, 37.95254 ], [ 23.43312, 37.96015 ], [ 23.42205, 37.96003 ], [ 23.45737, 37.97362 ], [ 23.44418, 37.97915 ], [ 23.42945, 37.98794 ], [ 23.45151, 37.98827 ], [ 23.4616, 37.98566 ], [ 23.47047, 37.98045 ], [ 23.47267, 37.98786 ], [ 23.47486, 37.98941 ], [ 23.47047, 37.99409 ], [ 23.4782, 37.99885 ], [ 23.49529, 38.00186 ], [ 23.51824, 37.99909 ], [ 23.53053, 37.99457 ], [ 23.53688, 37.98802 ], [ 23.53191, 37.98045 ], [ 23.53273, 37.97508 ], [ 23.53492, 37.96821 ], [ 23.54086, 37.96235 ], [ 23.54713, 37.95889 ], [ 23.54558, 37.95759 ], [ 23.54615, 37.95254 ], [ 23.5735, 37.95254 ], [ 23.53932, 37.93952 ], [ 23.54347, 37.92886 ], [ 23.52174, 37.91397 ], [ 23.51824, 37.89859 ], [ 23.51197, 37.89859 ], [ 23.50131, 37.90607 ], [ 23.49204, 37.90009 ], [ 23.48146, 37.88972 ], [ 23.46705, 37.88422 ], [ 23.4524, 37.8854 ], [ 23.4214, 37.89297 ], [ 23.40838, 37.89859 ], [ 23.40211, 37.90599 ] ] ], [ [ [ 20.72804, 38.38923 ], [ 20.73878, 38.38426 ], [ 20.7575, 38.37153 ], [ 20.73756, 38.37153 ], [ 20.74366, 38.34439 ], [ 20.75001, 38.3347 ], [ 20.76368, 38.33051 ], [ 20.76368, 38.32307 ], [ 20.73609, 38.32005 ], [ 20.71941, 38.31562 ], [ 20.70582, 38.31826 ], [ 20.68784, 38.33674 ], [ 20.69532, 38.34357 ], [ 20.68043, 38.35639 ], [ 20.66733, 38.37153 ], [ 20.64763, 38.40567 ], [ 20.64015, 38.4466 ], [ 20.62135, 38.4584 ], [ 20.61451, 38.46711 ], [ 20.61948, 38.48139 ], [ 20.63551, 38.47297 ], [ 20.64422, 38.47866 ], [ 20.65447, 38.50186 ], [ 20.67189, 38.49754 ], [ 20.67408, 38.48501 ], [ 20.66814, 38.47065 ], [ 20.66114, 38.46088 ], [ 20.67823, 38.46186 ], [ 20.68922, 38.45799 ], [ 20.70899, 38.4466 ], [ 20.70289, 38.42601 ], [ 20.69516, 38.40868 ], [ 20.67482, 38.37767 ], [ 20.69239, 38.37132 ], [ 20.71583, 38.37153 ], [ 20.71583, 38.37767 ], [ 20.70216, 38.38516 ], [ 20.7225, 38.38516 ], [ 20.71583, 38.39204 ], [ 20.72804, 38.38923 ] ] ], [ [ [ 23.65919, 39.12299 ], [ 23.62778, 39.14728 ], [ 23.62127, 39.15575 ], [ 23.61744, 39.16913 ], [ 23.58717, 39.20759 ], [ 23.60133, 39.21381 ], [ 23.60222, 39.20864 ], [ 23.61443, 39.20759 ], [ 23.63795, 39.18757 ], [ 23.66554, 39.16966 ], [ 23.69663, 39.15534 ], [ 23.73048, 39.14614 ], [ 23.72674, 39.1315 ], [ 23.74586, 39.12881 ], [ 23.77272, 39.12934 ], [ 23.79265, 39.12442 ], [ 23.79265, 39.11815 ], [ 23.76026, 39.09064 ], [ 23.74122, 39.08027 ], [ 23.71681, 39.07722 ], [ 23.70704, 39.07982 ], [ 23.69256, 39.08893 ], [ 23.66603, 39.09276 ], [ 23.65805, 39.09772 ], [ 23.65846, 39.10432 ], [ 23.66969, 39.1114 ], [ 23.66969, 39.11815 ], [ 23.65919, 39.12299 ] ] ], [ [ [ 23.92164, 39.19042 ], [ 23.89584, 39.16177 ], [ 23.86451, 39.14399 ], [ 23.83351, 39.14614 ], [ 23.84718, 39.16031 ], [ 23.86101, 39.16918 ], [ 23.87306, 39.18016 ], [ 23.88933, 39.21747 ], [ 23.93979, 39.27977 ], [ 23.95704, 39.2895 ], [ 23.95387, 39.27875 ], [ 23.95021, 39.27521 ], [ 23.97218, 39.27192 ], [ 23.96697, 39.25117 ], [ 23.94996, 39.22899 ], [ 23.93653, 39.22126 ], [ 23.92164, 39.19042 ] ] ] ] } },
{ "type": "Feature", "properties": { "kind": "land" }, "geometry": { "type": "Polygon", "coordinates": [ [ [ 20.71844, 38.06631 ], [ 20.70558, 38.07563 ], [ 20.68165, 38.09781 ], [ 20.65301, 38.11115 ], [ 20.61459, 38.11982 ], [ 20.58074, 38.11546 ], [ 20.56495, 38.09032 ], [ 20.5464, 38.10204 ], [ 20.50978, 38.11079 ], [ 20.4961, 38.12446 ], [ 20.49301, 38.13337 ], [ 20.48927, 38.15925 ], [ 20.47291, 38.18207 ], [ 20.46876, 38.19278 ], [ 20.48121, 38.19013 ], [ 20.49789, 38.17691 ], [ 20.50978, 38.17227 ], [ 20.50978, 38.17967 ], [ 20.49383, 38.19172 ], [ 20.4839, 38.20685 ], [ 20.45704, 38.26122 ], [ 20.44532, 38.27619 ], [ 20.43507, 38.27879 ], [ 20.42791, 38.26166 ], [ 20.42823, 38.24555 ], [ 20.43605, 38.21247 ], [ 20.43474, 38.19278 ], [ 20.4253, 38.17528 ], [ 20.41236, 38.16812 ], [ 20.39845, 38.16303 ], [ 20.38624, 38.1518 ], [ 20.38006, 38.1518 ], [ 20.37403, 38.16901 ], [ 20.34539, 38.18211 ], [ 20.33904, 38.20018 ], [ 20.34303, 38.20844 ], [ 20.35694, 38.22858 ], [ 20.35548, 38.23749 ], [ 20.35157, 38.24592 ], [ 20.35377, 38.25324 ], [ 20.37965, 38.27399 ], [ 20.3921, 38.30012 ], [ 20.3982, 38.33271 ], [ 20.39991, 38.36408 ], [ 20.40675, 38.34357 ], [ 20.41358, 38.34357 ], [ 20.42726, 38.36335 ], [ 20.43507, 38.35619 ], [ 20.44256, 38.33771 ], [ 20.45509, 38.32307 ], [ 20.46323, 38.33149 ], [ 20.46697, 38.32567 ], [ 20.47047, 38.31513 ], [ 20.47901, 38.30948 ], [ 20.48902, 38.31273 ], [ 20.50652, 38.32722 ], [ 20.5298, 38.33747 ], [ 20.53875, 38.35407 ], [ 20.53956, 38.37421 ], [ 20.53094, 38.39204 ], [ 20.55128, 38.38516 ], [ 20.53777, 38.42609 ], [ 20.54363, 38.45917 ], [ 20.53777, 38.46772 ], [ 20.53777, 38.47394 ], [ 20.57179, 38.47394 ], [ 20.62582, 38.35175 ], [ 20.6277, 38.34357 ], [ 20.62615, 38.32844 ], [ 20.62013, 38.32022 ], [ 20.59913, 38.30264 ], [ 20.60719, 38.29352 ], [ 20.63054, 38.25796 ], [ 20.64291, 38.2534 ], [ 20.65699, 38.26252 ], [ 20.67066, 38.2753 ], [ 20.68165, 38.28213 ], [ 20.67482, 38.26781 ], [ 20.69353, 38.26463 ], [ 20.69955, 38.25434 ], [ 20.702, 38.24063 ], [ 20.70899, 38.22696 ], [ 20.75131, 38.19676 ], [ 20.76222, 38.1704 ], [ 20.7977, 38.13129 ], [ 20.80502, 38.11579 ], [ 20.80779, 38.09955 ], [ 20.8047, 38.08295 ], [ 20.79469, 38.06611 ], [ 20.78932, 38.06501 ], [ 20.76368, 38.06989 ], [ 20.75441, 38.06879 ], [ 20.74342, 38.06363 ], [ 20.73357, 38.0624 ], [ 20.71844, 38.06631 ] ] ] } },
{ "type": "Feature", "properties": { "kind": "land" }, "geometry": { "type": "MultiPolygon", "coordinates": [ [ [ [ 22.98365, 36.48066 ], [ 22.98935, 36.47045 ], [ 22.98601, 36.45824 ], [ 22.97421, 36.46585 ], [ 22.97006, 36.47451 ], [ 22.96583, 36.47606 ], [ 22.95159, 36.47525 ], [ 22.94654, 36.47293 ], [ 22.9406, 36.46609 ], [ 22.93165, 36.46475 ], [ 22.92506, 36.46906 ], [ 22.92506, 36.4759 ], [ 22.92937, 36.48412 ], [ 22.93539, 36.48867 ], [ 22.94158, 36.49099 ], [ 22.94589, 36.4999 ], [ 22.95265, 36.50548 ], [ 22.96241, 36.50991 ], [ 22.96982, 36.51122 ], [ 22.97674, 36.50747 ], [ 22.98219, 36.49942 ], [ 22.98487, 36.48452 ], [ 22.98365, 36.48066 ] ] ], [ [ [ 21.55869, 37.05382 ], [ 21.55535, 37.04979 ], [ 21.55567, 37.04255 ], [ 21.54664, 37.03233 ], [ 21.54607, 37.03775 ], [ 21.549, 37.04536 ], [ 21.54347, 37.04808 ], [ 21.53728, 37.05744 ], [ 21.55283, 37.0644 ], [ 21.55869, 37.05382 ] ] ], [ [ [ 23.93393, 37.4785 ], [ 23.94256, 37.46316 ], [ 23.94044, 37.4621 ], [ 23.92612, 37.46703 ], [ 23.91546, 37.48033 ], [ 23.89682, 37.49018 ], [ 23.89812, 37.49449 ], [ 23.90813, 37.49018 ], [ 23.91961, 37.48827 ], [ 23.93393, 37.4785 ] ] ], [ [ [ 23.95338, 37.65681 ], [ 23.95973, 37.65139 ], [ 23.95973, 37.64281 ], [ 23.94109, 37.64216 ], [ 23.93556, 37.6459 ], [ 23.93865, 37.65709 ], [ 23.95338, 37.65681 ] ] ], [ [ [ 24.14316, 37.75271 ], [ 24.15113, 37.73408 ], [ 24.14861, 37.72264 ], [ 24.14454, 37.71833 ], [ 24.13714, 37.71418 ], [ 24.12599, 37.68513 ], [ 24.11801, 37.66808 ], [ 24.10743, 37.65152 ], [ 24.10711, 37.64671 ], [ 24.10515, 37.64525 ], [ 24.10108, 37.65054 ], [ 24.09986, 37.65941 ], [ 24.12639, 37.74303 ], [ 24.13803, 37.75283 ], [ 24.14316, 37.75271 ] ] ], [ [ [ 23.76352, 37.77599 ], [ 23.76677, 37.76952 ], [ 23.76336, 37.76398 ], [ 23.7566, 37.76297 ], [ 23.75156, 37.76952 ], [ 23.75733, 37.77001 ], [ 23.75522, 37.77513 ], [ 23.76352, 37.77599 ] ] ], [ [ [ 24.27565, 38.00918 ], [ 24.28297, 37.9984 ], [ 24.27784, 37.98509 ], [ 24.26498, 37.97846 ], [ 24.25416, 37.98163 ], [ 24.23959, 37.97773 ], [ 24.22869, 37.98281 ], [ 24.22788, 37.98835 ], [ 24.24285, 38.01297 ], [ 24.25408, 38.01996 ], [ 24.26319, 38.01878 ], [ 24.27565, 38.00918 ] ] ], [ [ [ 25.52093, 38.53636 ], [ 25.52312, 38.53286 ], [ 25.51816, 38.52912 ], [ 25.50115, 38.52961 ], [ 25.49374, 38.53221 ], [ 25.50782, 38.5526 ], [ 25.51767, 38.55223 ], [ 25.52304, 38.54564 ], [ 25.52093, 38.53636 ] ] ], [ [ [ 24.35589, 38.85053 ], [ 24.37289, 38.84073 ], [ 24.37176, 38.83369 ], [ 24.36769, 38.83499 ], [ 24.35776, 38.8275 ], [ 24.34262, 38.83405 ], [ 24.34441, 38.84089 ], [ 24.35239, 38.85004 ], [ 24.35589, 38.85053 ] ] ], [ [ [ 24.10076, 39.0607 ], [ 24.11036, 39.06961 ], [ 24.10288, 39.07681 ], [ 24.09897, 39.09243 ], [ 24.10353, 39.09968 ], [ 24.10914, 39.10212 ], [ 24.11744, 39.10305 ], [ 24.11793, 39.09907 ], [ 24.11484, 39.09593 ], [ 24.11826, 39.09125 ], [ 24.11378, 39.07738 ], [ 24.11671, 39.07396 ], [ 24.11915, 39.07477 ], [ 24.12355, 39.07205 ], [ 24.12412, 39.06289 ], [ 24.11329, 39.05919 ], [ 24.10605, 39.05919 ], [ 24.09897, 39.05541 ], [ 24.10076, 39.0607 ] ] ], [ [ [ 20.24545, 39.14012 ], [ 20.25831, 39.13288 ], [ 20.24724, 39.12958 ], [ 20.24261, 39.1306 ], [ 20.22739, 39.14081 ], [ 20.21941, 39.14012 ], [ 20.2151, 39.14794 ], [ 20.21746, 39.15266 ], [ 20.22877, 39.15636 ], [ 20.24545, 39.14012 ] ] ], [ [ [ 24.3226, 39.36876 ], [ 24.33066, 39.36412 ], [ 24.33001, 39.3535 ], [ 24.32097, 39.3308 ], [ 24.31243, 39.33482 ], [ 24.31739, 39.35659 ], [ 24.3226, 39.36876 ] ] ], [ [ [ 24.18303, 39.39395 ], [ 24.1775, 39.38365 ], [ 24.15341, 39.36209 ], [ 24.15309, 39.36595 ], [ 24.14234, 39.37096 ], [ 24.14397, 39.3771 ], [ 24.15203, 39.38557 ], [ 24.15789, 39.40611 ], [ 24.16782, 39.41425 ], [ 24.17286, 39.42748 ], [ 24.17644, 39.42406 ], [ 24.18303, 39.39395 ] ] ], [ [ [ 19.53094, 39.76996 ], [ 19.5385, 39.75963 ], [ 19.53167, 39.75625 ], [ 19.52369, 39.75918 ], [ 19.51018, 39.77709 ], [ 19.51352, 39.78425 ], [ 19.53094, 39.76996 ] ] ], [ [ [ 19.57455, 39.90009 ], [ 19.59457, 39.89102 ], [ 19.59254, 39.87954 ], [ 19.58351, 39.87954 ], [ 19.57521, 39.8758 ], [ 19.5656, 39.89122 ], [ 19.57455, 39.90009 ] ] ] ] } },
{ "type": "Feature", "properties": { "kind": "island" }, "geometry": { "type": "Polygon", "coordinates": [ [ [ 22.98365, 36.48066 ], [ 22.98935, 36.47045 ], [ 22.98601, 36.45824 ], [ 22.97421, 36.46585 ], [ 22.97006, 36.47451 ], [ 22.96583, 36.47606 ], [ 22.95159, 36.47525 ], [ 22.94654, 36.47293 ], [ 22.9406, 36.46609 ], [ 22.93165, 36.46475 ], [ 22.92506, 36.46906 ], [ 22.92506, 36.4759 ], [ 22.92937, 36.48412 ], [ 22.93539, 36.48867 ], [ 22.94158, 36.49099 ], [ 22.94589, 36.4999 ], [ 22.95265, 36.50548 ], [ 22.96241, 36.50991 ], [ 22.96982, 36.51122 ], [ 22.97674, 36.50747 ], [ 22.98219, 36.49942 ], [ 22.98487, 36.48452 ], [ 22.98365, 36.48066 ] ] ] } },
{ "type": "Feature", "properties": { "kind": "island" }, "geometry": { "type": "Polygon", "coordinates": [ [ [ 21.55869, 37.05382 ], [ 21.55535, 37.04979 ], [ 21.55567, 37.04255 ], [ 21.54664, 37.03233 ], [ 21.54607, 37.03775 ], [ 21.549, 37.04536 ], [ 21.54347, 37.04808 ], [ 21.53728, 37.05744 ], [ 21.55283, 37.0644 ], [ 21.55869, 37.05382 ] ] ] } },
{ "type": "Feature", "properties": { "kind": "island" }, "geometry": { "type": "Polygon", "coordinates": [ [ [ 23.93393, 37.4785 ], [ 23.94256, 37.46316 ], [ 23.94044, 37.4621 ], [ 23.92612, 37.46703 ], [ 23.91546, 37.48033 ], [ 23.89682, 37.49018 ], [ 23.89812, 37.49449 ], [ 23.90813, 37.49018 ], [ 23.91961, 37.48827 ], [ 23.93393, 37.4785 ] ] ] } },
{ "type": "Feature", "properties": { "kind": "island" }, "geometry": { "type": "Polygon", "coordinates": [ [ [ 23.95338, 37.65681 ], [ 23.95973, 37.65139 ], [ 23.95973, 37.64281 ], [ 23.94109, 37.64216 ], [ 23.93556, 37.6459 ], [ 23.93865, 37.65709 ], [ 23.95338, 37.65681 ] ] ] } },
{ "type": "Feature", "properties": { "kind": "island" }, "geometry": { "type": "Polygon", "coordinates": [ [ [ 24.14316, 37.75271 ], [ 24.15113, 37.73408 ], [ 24.14861, 37.72264 ], [ 24.14454, 37.71833 ], [ 24.13714, 37.71418 ], [ 24.12599, 37.68513 ], [ 24.11801, 37.66808 ], [ 24.10743, 37.65152 ], [ 24.10711, 37.64671 ], [ 24.10515, 37.64525 ], [ 24.10108, 37.65054 ], [ 24.09986, 37.65941 ], [ 24.12639, 37.74303 ], [ 24.13803, 37.75283 ], [ 24.14316, 37.75271 ] ] ] } },
{ "type": "Feature", "properties": { "kind": "island" }, "geometry": { "type": "Polygon", "coordinates": [ [ [ 23.76352, 37.77599 ], [ 23.76677, 37.76952 ], [ 23.76336, 37.76398 ], [ 23.7566, 37.76297 ], [ 23.75156, 37.76952 ], [ 23.75733, 37.77001 ], [ 23.75522, 37.77513 ], [ 23.76352, 37.77599 ] ] ] } },
{ "type": "Feature", "properties": { "kind": "island" }, "geometry": { "type": "Polygon", "coordinates": [ [ [ 24.27565, 38.00918 ], [ 24.28297, 37.9984 ], [ 24.27784, 37.98509 ], [ 24.26498, 37.97846 ], [ 24.25416, 37.98163 ], [ 24.23959, 37.97773 ], [ 24.22869, 37.98281 ], [ 24.22788, 37.98835 ], [ 24.24285, 38.01297 ], [ 24.25408, 38.01996 ], [ 24.26319, 38.01878 ], [ 24.27565, 38.00918 ] ] ] } },
{ "type": "Feature", "properties": { "kind": "island" }, "geometry": { "type": "Polygon", "coordinates": [ [ [ 25.52093, 38.53636 ], [ 25.52312, 38.53286 ], [ 25.51816, 38.52912 ], [ 25.50115, 38.52961 ], [ 25.49374, 38.53221 ], [ 25.50782, 38.5526 ], [ 25.51767, 38.55223 ], [ 25.52304, 38.54564 ], [ 25.52093, 38.53636 ] ] ] } },
{ "type": "Feature", "properties": { "kind": "island" }, "geometry": { "type": "Polygon", "coordinates": [ [ [ 24.35589, 38.85053 ], [ 24.37289, 38.84073 ], [ 24.37176, 38.83369 ], [ 24.36769, 38.83499 ], [ 24.35776, 38.8275 ], [ 24.34262, 38.83405 ], [ 24.34441, 38.84089 ], [ 24.35239, 38.85004 ], [ 24.35589, 38.85053 ] ] ] } },
{ "type": "Feature", "properties": { "kind": "island" }, "geometry": { "type": "Polygon", "coordinates": [ [ [ 24.10076, 39.0607 ], [ 24.11036, 39.06961 ], [ 24.10288, 39.07681 ], [ 24.09897, 39.09243 ], [ 24.10353, 39.09968 ], [ 24.10914, 39.10212 ], [ 24.11744, 39.10305 ], [ 24.11793, 39.09907 ], [ 24.11484, 39.09593 ], [ 24.11826, 39.09125 ], [ 24.11378, 39.07738 ], [ 24.11671, 39.07396 ], [ 24.11915, 39.07477 ], [ 24.12355, 39.07205 ], [ 24.12412, 39.06289 ], [ 24.11329, 39.05919 ], [ 24.10605, 39.05919 ], [ 24.09897, 39.05541 ], [ 24.10076, 39.0607 ] ] ] } },
{ "type": "Feature", "properties": { "kind": "island" }, "geometry": { "type": "Polygon", "coordinates": [ [ [ 20.24545, 39.14012 ], [ 20.25831, 39.13288 ], [ 20.24724, 39.12958 ], [ 20.24261, 39.1306 ], [ 20.22739, 39.14081 ], [ 20.21941, 39.14012 ], [ 20.2151, 39.14794 ], [ 20.21746, 39.15266 ], [ 20.22877, 39.15636 ], [ 20.24545, 39.14012 ] ] ] } },
{ "type": "Feature", "properties": { "kind": "island" }, "geometry": { "type": "Polygon", "coordinates": [ [ [ 24.3226, 39.36876 ], [ 24.33066, 39.36412 ], [ 24.33001, 39.3535 ], [ 24.32097, 39.3308 ], [ 24.31243, 39.33482 ], [ 24.31739, 39.35659 ], [ 24.3226, 39.36876 ] ] ] } },
{ "type": "Feature", "properties": { "kind": "island" }, "geometry": { "type": "Polygon", "coordinates": [ [ [ 24.18303, 39.39395 ], [ 24.1775, 39.38365 ], [ 24.15341, 39.36209 ], [ 24.15309, 39.36595 ], [ 24.14234, 39.37096 ], [ 24.14397, 39.3771 ], [ 24.15203, 39.38557 ], [ 24.15789, 39.40611 ], [ 24.16782, 39.41425 ], [ 24.17286, 39.42748 ], [ 24.17644, 39.42406 ], [ 24.18303, 39.39395 ] ] ] } },
{ "type": "Feature", "properties": { "kind": "island" }, "geometry": { "type": "Polygon", "coordinates": [ [ [ 19.53094, 39.76996 ], [ 19.5385, 39.75963 ], [ 19.53167, 39.75625 ], [ 19.52369, 39.75918 ], [ 19.51018, 39.77709 ], [ 19.51352, 39.78425 ], [ 19.53094, 39.76996 ] ] ] } },
{ "type": "Feature", "properties": { "kind": "island" }, "geometry": { "type": "Polygon", "coordinates": [ [ [ 19.57455, 39.90009 ], [ 19.59457, 39.89102 ], [ 19.59254, 39.87954 ], [ 19.58351, 39.87954 ], [ 19.57521, 39.8758 ], [ 19.5656, 39.89122 ], [ 19.57455, 39.90009 ] ] ] } }
]
}
